{
  "version": 0.6,
  "generator": "Overpass API 0.7.62.5 1bd436f1",
  "osm3s": {
    "timestamp_osm_base": "2025-05-11T04:12:11Z",
    "copyright": "The data included in this document is from www.openstreetmap.org. The data is made available under ODbL."
  },
  "elements": [
    {
      "type": "way",
      "id": 4481070,
      "nodes": [
        8308409064,
        10698045108,
        2280045252,
        9877699632,
        2309134839,
        2290887268,
        9877699633,
        522986405,
        6912954343,
        421891649,
        4379445765,
        2280045239,
        9884004943
      ],
      "tags": {
        "highway": "tertiary",
        "lanes": "2",
        "maxspeed": "50",
        "name": "Aleksander Puškini",
        "name:etymology:wikidata": "Q7200",
        "name:etymology:wikipedia": "et:Aleksandr Puškin",
        "name:ru": "улица Александра Пушкина",
        "oneway": "no",
        "sidewalk:both": "separate",
        "surface": "asphalt"
      }
    },
    {
      "type": "way",
      "id": 4585925,
      "nodes": [
        11155721,
        2387229670,
        2431946273,
        2431946285,
        1291832362,
        8355115782,
        525805712,
        9877703933,
        525805710,
        5464804176,
        417982569,
        6909459497,
        537990726,
        8355102267,
        9877703932,
        417982571,
        2260813326,
        537990729,
        9957890957,
        2280045253,
        11155765
      ],
      "tags": {
        "highway": "tertiary",
        "lanes": "1",
        "maxspeed": "50",
        "name": "Rakvere",
        "name:etymology:wikidata": "Q191889",
        "name:etymology:wikipedia": "et:Rakvere",
        "surface": "asphalt"
      }
    },
    {
      "type": "way",
      "id": 26232279,
      "nodes": [
        9668246850,
        3183376625,
        11515890881,
        6743868070,
        542142775,
        417987391,
        417987390,
        392227133,
        542142773,
        287244835,
        442665912,
        287244836
      ],
      "tags": {
        "bicycle": "yes",
        "highway": "tertiary",
        "maxspeed": "50",
        "name": "Sepa",
        "name:etymology:wikidata": "Q1639825",
        "name:etymology:wikipedia": "et:Sepp",
        "ref": "91",
        "surface": "asphalt"
      }
    },
    {
      "type": "way",
      "id": 27564853,
      "nodes": [
        302663887,
        7851353106,
        302663889,
        302663890,
        8311239679,
        302663891,
        7851353107,
        8311239680,
        8311239681,
        302663892
      ],
      "tags": {
        "highway": "tertiary_link",
        "lanes": "1",
        "oneway": "yes",
        "surface": "asphalt"
      }
    },
    {
      "type": "way",
      "id": 27565224,
      "nodes": [
        302668528,
        417980853,
        874195316,
        2319235893,
        441855206,
        2552432083,
        9877758200,
        9877758199,
        2319235879,
        2552432078,
        874226018,
        874195375,
        417980893,
        302667617,
        417980896,
        9877811460,
        5306843113,
        9877811461,
        417980777
      ],
      "tags": {
        "highway": "tertiary",
        "lanes": "4",
        "maxspeed": "50",
        "name": "Võidu prospekt",
        "name:ru": "проспект Победы",
        "surface": "asphalt"
      }
    },
    {
      "type": "way",
      "id": 34200129,
      "nodes": [
        529554102,
        899488316,
        899489101,
        392227186
      ],
      "tags": {
        "highway": "tertiary",
        "name": "Vaivara",
        "oneway": "yes",
        "surface": "asphalt"
      }
    },
    {
      "type": "way",
      "id": 35379992,
      "nodes": [
        525886348,
        9877699635,
        9877699634,
        791914906,
        8136117,
        523147388,
        2301886881,
        523147377
      ],
      "tags": {
        "highway": "tertiary",
        "lanes": "2",
        "maxspeed": "50",
        "name": "Aleksander Puškini",
        "name:etymology:wikidata": "Q7200",
        "name:etymology:wikipedia": "et:Aleksandr Puškin",
        "name:ru": "улица Александра Пушкина",
        "oneway": "no",
        "surface": "asphalt"
      }
    },
    {
      "type": "way",
      "id": 35380936,
      "nodes": [
        461817419,
        10611602
      ],
      "tags": {
        "highway": "tertiary",
        "lanes": "2",
        "maxspeed": "40",
        "name": "Kalda",
        "name:etymology:wikidata": "Q2897058",
        "name:etymology:wikipedia": "et:Kallas",
        "surface": "asphalt"
      }
    },
    {
      "type": "way",
      "id": 35380937,
      "nodes": [
        11155184,
        3681376371,
        2291664794,
        2287348519,
        8074491638,
        441862010,
        9877699643,
        3681366815,
        11155175
      ],
      "tags": {
        "highway": "tertiary",
        "maxspeed": "50",
        "name": "Vassili Gerassimovi",
        "name:etymology:wikidata": "Q66325479",
        "name:etymology:wikipedia": "et:Vassili Gerassimov",
        "name:ru": "улица Василия Герасимова",
        "surface": "asphalt",
        "wikidata": "Q31271808"
      }
    },
    {
      "type": "way",
      "id": 35716619,
      "nodes": [
        417980777,
        8308409078,
        8308409079,
        1376650148,
        417980885,
        417980785
      ],
      "tags": {
        "highway": "tertiary",
        "lanes": "1",
        "name": "Võidu prospekt",
        "name:ru": "проспект Победы",
        "oneway": "yes",
        "surface": "asphalt"
      }
    },
    {
      "type": "way",
      "id": 35721081,
      "nodes": [
        287244836,
        9956714603,
        9956714604,
        9956714600,
        6882285847,
        3183376623,
        6882285841,
        9877758193,
        5464804180,
        395498940,
        6669979135,
        542142771,
        417987382,
        542142769,
        287244838,
        2949072044,
        9956714565,
        302664276,
        442665913
      ],
      "tags": {
        "highway": "tertiary",
        "lit": "yes",
        "maxspeed": "50",
        "name": "Vestervalli",
        "ref": "91",
        "surface": "asphalt"
      }
    },
    {
      "type": "way",
      "id": 36942663,
      "nodes": [
        11155765,
        1965458039,
        8077316023,
        9877758189,
        11515856855,
        417982566,
        537853503,
        6912215175,
        9877758214,
        5464804177,
        6912215125,
        6906379481,
        6912215102,
        537851364,
        11383148844,
        6906153694,
        8077313532,
        9877758188,
        5464804178,
        29926224
      ],
      "tags": {
        "highway": "tertiary",
        "lanes": "1",
        "maxspeed": "50",
        "name": "Rakvere",
        "name:etymology:wikidata": "Q191889",
        "name:etymology:wikipedia": "et:Rakvere",
        "surface": "asphalt"
      }
    },
    {
      "type": "way",
      "id": 37193240,
      "nodes": [
        8138447,
        1258210380,
        1258211239,
        1258209626,
        432842316,
        432842319,
        1258211546,
        432842322,
        1258211814,
        432842324,
        1258210875,
        432842326,
        1258210113,
        432842327,
        11718031286,
        11718031287,
        11718031288,
        1258212024,
        2298698847,
        432842339,
        2298698838,
        2278632447,
        432842341,
        2278632563,
        9938485438,
        432842344
      ],
      "tags": {
        "highway": "tertiary",
        "maxspeed": "90",
        "name": "Lapiotsa - Soldina",
        "ref": "149",
        "surface": "asphalt"
      }
    },
    {
      "type": "way",
      "id": 37193243,
      "nodes": [
        432842348,
        9938495224,
        540909092,
        540909096,
        9938485502,
        9938495227,
        9938485442,
        10608522673,
        9879492939,
        540909087,
        432842352,
        9938495323,
        2371835363,
        540909100,
        432842354,
        2360962862,
        540909104,
        540899665
      ],
      "tags": {
        "highway": "tertiary",
        "maxspeed": "50",
        "name": "Korterite",
        "ref": "13149",
        "surface": "asphalt"
      }
    },
    {
      "type": "way",
      "id": 37193258,
      "nodes": [
        302663497,
        10608437210,
        686703374,
        10608437213
      ],
      "tags": {
        "highway": "tertiary",
        "lanes": "1",
        "maxspeed": "50",
        "name": "Elektrijaama tee",
        "oneway": "yes",
        "ref": "13109",
        "surface": "asphalt"
      }
    },
    {
      "type": "way",
      "id": 37193413,
      "nodes": [
        777298185,
        432845054,
        648976828,
        432845055,
        648976827,
        432845056
      ],
      "tags": {
        "highway": "tertiary",
        "maxspeed": "70",
        "name": "Peeterristi — Kudruküla",
        "ref": "13147",
        "surface": "asphalt"
      }
    },
    {
      "type": "way",
      "id": 40024401,
      "nodes": [
        9883958979,
        392227186,
        9883933176,
        9883933177,
        9883958978,
        8136122,
        9883933165,
        9883933163,
        9883933164,
        9883933173,
        9883933174,
        1094081585,
        9883933166,
        9883933167,
        9883933168,
        9883933169,
        9883933170,
        529554103,
        9883933171,
        9883933172,
        9883958979
      ],
      "tags": {
        "highway": "tertiary",
        "junction": "roundabout",
        "source:maxspeed": "EE:urban",
        "surface": "asphalt"
      }
    },
    {
      "type": "way",
      "id": 40906111,
      "nodes": [
        9877758206,
        874226259,
        5324550983,
        5440050475,
        8077044595,
        8077044597,
        8364485209,
        8364489596,
        417980755,
        417980745,
        417980749,
        8364489322,
        8077057538,
        9877758207,
        302664051,
        5440050480,
        429584741,
        11763351654,
        9877758208,
        11763351655,
        919688440,
        11763351681,
        11763351682,
        11763351683,
        5440050482,
        2479016727,
        919688438,
        6937603434,
        919688431,
        1606755942,
        2486501989,
        11155983
      ],
      "tags": {
        "highway": "tertiary",
        "lanes": "1",
        "maxspeed": "50",
        "name": "Soldina",
        "old_name": "Albert-August Tiimanni",
        "old_name:ru": "улица Альберта-Августа Тиймана",
        "surface": "asphalt",
        "width": "11"
      }
    },
    {
      "type": "way",
      "id": 42102045,
      "nodes": [
        230347350,
        1198998417,
        899488694,
        230347353,
        2378862081,
        230347357,
        230347361
      ],
      "tags": {
        "highway": "tertiary",
        "lane_markings": "no",
        "lit": "yes",
        "name": "Madise",
        "old_name": "Igor Grafovi",
        "old_name:ru": "улица Игоря Графова",
        "oneway": "yes",
        "sidewalk:left": "yes",
        "sidewalk:right": "separate",
        "surface": "asphalt"
      }
    },
    {
      "type": "way",
      "id": 42211587,
      "nodes": [
        11155224,
        1094081902,
        11155226,
        8077054637,
        2378008700,
        9877699639,
        1094081965,
        1089229832,
        11155230,
        1437728269,
        1094081816,
        461817419
      ],
      "tags": {
        "highway": "tertiary",
        "name": "Kalda",
        "name:etymology:wikidata": "Q2897058",
        "name:etymology:wikipedia": "et:Kallas",
        "surface": "asphalt"
      }
    },
    {
      "type": "way",
      "id": 42416915,
      "nodes": [
        529554103,
        899488506,
        9883933178,
        529554102
      ],
      "tags": {
        "highway": "tertiary",
        "lit": "yes",
        "name": "Vaivara",
        "oneway": "yes",
        "surface": "asphalt"
      }
    },
    {
      "type": "way",
      "id": 43171471,
      "nodes": [
        540899605,
        540899608,
        2552944280,
        2552944066,
        2552944375,
        2552944203,
        2552944299,
        2552944445,
        2287048234,
        540899610,
        2287048228,
        540899611,
        2287048248,
        540899614,
        540899616,
        540899619,
        540899621,
        7640736527,
        540899623,
        2702921755,
        5341258002,
        540899625,
        540899627,
        540899629,
        540899631,
        540899718,
        2702921775,
        540899634,
        540899636,
        540899638,
        540899640,
        540899643,
        540899714,
        2702921828,
        540899645,
        540899646,
        540899647,
        540899648,
        540899706,
        540899649,
        540899703,
        540899701,
        540899693,
        540899698,
        540899696,
        540899690,
        2276769506,
        540899712,
        540899711,
        2276769431,
        540899707,
        540899710,
        2276769391,
        540899708,
        2276769487,
        540899651,
        2276769420,
        540899653,
        540899687,
        540899669
      ],
      "tags": {
        "highway": "tertiary",
        "lit": "no",
        "maxspeed": "90",
        "name": "Narva — Arumäe",
        "ref": "13148",
        "surface": "compacted"
      }
    },
    {
      "type": "way",
      "id": 43171846,
      "nodes": [
        2276769466,
        2276769464,
        2267363293,
        686703338
      ],
      "tags": {
        "highway": "tertiary",
        "lanes": "2",
        "maxspeed": "50",
        "name": "Elektrijaama tee",
        "ref": "13109",
        "surface": "asphalt"
      }
    },
    {
      "type": "way",
      "id": 43171847,
      "nodes": [
        540899605,
        9877811436,
        6796477319,
        1825145732,
        7640736503,
        1825145733,
        432842435,
        10608392332,
        2559964760
      ],
      "tags": {
        "highway": "tertiary",
        "lanes": "2",
        "maxspeed": "90",
        "name": "Narva — Auvere",
        "ref": "13109",
        "surface": "asphalt"
      }
    },
    {
      "type": "way",
      "id": 43171848,
      "nodes": [
        302663499,
        6823804034,
        481211148,
        2364154329,
        1258212012
      ],
      "tags": {
        "highway": "tertiary",
        "lanes": "2",
        "maxspeed": "70",
        "name": "Elektrijaama tee",
        "ref": "13109",
        "surface": "asphalt"
      }
    },
    {
      "type": "way",
      "id": 43226743,
      "nodes": [
        29926224,
        1825145897,
        560886994,
        9879492970,
        417982567,
        417982564,
        11515890883,
        542142778,
        9879376625,
        8077590796,
        498046922,
        2311665784,
        9879376626,
        498046902,
        2383212519,
        2311665786,
        29926223,
        29926222,
        2387382043,
        1309531718,
        542142782,
        3183376628,
        9877758212,
        9273249994,
        9877758213,
        7345756225,
        29926221,
        429582411,
        12522708485,
        12522708483,
        2313948089,
        29926219,
        542200125,
        9877758210,
        9273250007,
        5439504516,
        9877758211,
        7640709191,
        7931981449,
        29926218
      ],
      "tags": {
        "bicycle": "yes",
        "highway": "tertiary",
        "lit": "yes",
        "maxspeed": "50",
        "name": "Jõesuu",
        "ref": "91",
        "surface": "asphalt"
      }
    },
    {
      "type": "way",
      "id": 44107146,
      "nodes": [
        1606755883,
        5439930825,
        481234631
      ],
      "tags": {
        "highway": "tertiary",
        "lit": "yes",
        "name": "Raudsilla",
        "surface": "asphalt"
      }
    },
    {
      "type": "way",
      "id": 44107148,
      "nodes": [
        10611602,
        10611598
      ],
      "tags": {
        "highway": "tertiary",
        "lanes": "2",
        "maxheight": "4",
        "maxspeed": "40",
        "name": "Raudsilla",
        "surface": "asphalt"
      }
    },
    {
      "type": "way",
      "id": 44107149,
      "nodes": [
        10611598,
        899488902,
        899489030,
        481227524,
        481227525,
        1606755864,
        1606755871
      ],
      "tags": {
        "highway": "tertiary",
        "lit": "yes",
        "maxspeed": "40",
        "name": "Raudsilla",
        "surface": "asphalt"
      }
    },
    {
      "type": "way",
      "id": 44107150,
      "nodes": [
        481234631,
        560519227,
        10611592
      ],
      "tags": {
        "highway": "tertiary",
        "lit": "yes",
        "maxspeed": "30",
        "name": "Raudsilla",
        "surface": "asphalt"
      }
    },
    {
      "type": "way",
      "id": 44107152,
      "nodes": [
        7669707543,
        230347343,
        899488955,
        230347347,
        1376264097,
        899488555,
        230347350
      ],
      "tags": {
        "highway": "tertiary",
        "lanes": "1",
        "lit": "yes",
        "maxspeed": "50",
        "name": "Madise",
        "old_name": "Igor Grafovi",
        "old_name:ru": "улица Игоря Графова",
        "oneway": "yes",
        "sidewalk:left": "yes",
        "sidewalk:right": "separate",
        "surface": "asphalt"
      }
    },
    {
      "type": "way",
      "id": 54520679,
      "nodes": [
        686703339,
        432842430,
        2267363264,
        432842429,
        432842428,
        12413079633,
        432842427,
        2491883722,
        2266267755,
        2266267752,
        432842426,
        2266267754,
        2266267758,
        432842425,
        2266267757,
        2267344927,
        432842424,
        9877811430,
        9877811429,
        2267344872,
        432842415,
        4741275914,
        432842412,
        4741275913,
        2267344249,
        432842403,
        432842401,
        2267344474,
        9877811426,
        10608379299,
        10608437223
      ],
      "tags": {
        "highway": "tertiary",
        "lanes": "2",
        "maxspeed": "50",
        "name": "Elektrijaama tee",
        "ref": "13109",
        "surface": "asphalt"
      }
    },
    {
      "type": "way",
      "id": 54520694,
      "nodes": [
        686703338,
        686703339
      ],
      "tags": {
        "bridge": "yes",
        "highway": "tertiary",
        "layer": "1",
        "maxspeed": "50",
        "name": "Elektrijaama tee",
        "ref": "13109",
        "surface": "asphalt"
      }
    },
    {
      "type": "way",
      "id": 54520697,
      "nodes": [
        686703373,
        686703375
      ],
      "tags": {
        "bridge": "yes",
        "highway": "tertiary",
        "lanes": "1",
        "layer": "1",
        "maxspeed": "50",
        "name": "Elektrijaama tee",
        "oneway": "yes",
        "ref": "13109",
        "surface": "asphalt"
      }
    },
    {
      "type": "way",
      "id": 54520698,
      "nodes": [
        686703375,
        2267094301,
        432842398
      ],
      "tags": {
        "highway": "tertiary",
        "lanes": "1",
        "maxspeed": "50",
        "name": "Elektrijaama tee",
        "oneway": "yes",
        "ref": "13109",
        "surface": "asphalt"
      }
    },
    {
      "type": "way",
      "id": 62238537,
      "nodes": [
        9879492958,
        777298196,
        777298009,
        2231602513,
        777298204,
        777298017,
        2231602511,
        777298211,
        777298138,
        777298151,
        2231602515,
        777297992,
        10608568908,
        9879492957,
        6743287340,
        578421608,
        6743287338,
        777298198,
        777298206,
        6743287337,
        777298019,
        777298143,
        6743287334,
        777298178,
        6743287333,
        6743287335,
        777298008,
        6743287336,
        777298201
      ],
      "tags": {
        "highway": "tertiary",
        "name": "Kudruküla — Leekova — Peeterristi",
        "ref": "13212",
        "surface": "asphalt"
      }
    },
    {
      "type": "way",
      "id": 75653788,
      "nodes": [
        302663892,
        8311239675,
        302663893,
        7851353101,
        8311239671,
        848308633,
        302663894,
        8311239672,
        302663895,
        302663667
      ],
      "tags": {
        "highway": "tertiary_link",
        "lanes": "1",
        "oneway": "yes",
        "surface": "asphalt"
      }
    },
    {
      "type": "way",
      "id": 78349777,
      "nodes": [
        9884004936,
        9884004940,
        9883959009,
        3694734254,
        919740370,
        414911527,
        230347538,
        2246152144,
        230347544,
        5439930824
      ],
      "tags": {
        "highway": "tertiary",
        "lanes": "1",
        "lit": "yes",
        "maxspeed": "50",
        "name": "Vaivara",
        "sidewalk": "both",
        "surface": "asphalt"
      }
    },
    {
      "type": "way",
      "id": 93787104,
      "nodes": [
        11155175,
        3681366819,
        2370788599
      ],
      "tags": {
        "highway": "tertiary",
        "lanes": "3",
        "lanes:backward": "2",
        "lanes:forward": "1",
        "maxspeed": "50",
        "name": "Kalda",
        "name:etymology:wikidata": "Q2897058",
        "name:etymology:wikipedia": "et:Kallas",
        "surface": "asphalt",
        "turn:lanes:backward": "left|through;right"
      }
    },
    {
      "type": "way",
      "id": 93787118,
      "nodes": [
        8136117,
        9884181917,
        392227185,
        530778162,
        530778157,
        2379915453,
        633530725,
        230347361
      ],
      "tags": {
        "highway": "tertiary",
        "lit": "yes",
        "name": "Madise",
        "old_name": "Igor Grafovi",
        "old_name:ru": "улица Игоря Графова",
        "surface": "asphalt"
      }
    },
    {
      "type": "way",
      "id": 147454917,
      "nodes": [
        1606755885,
        392708174
      ],
      "tags": {
        "bridge": "yes",
        "highway": "tertiary",
        "lanes": "2",
        "layer": "1",
        "maxspeed": "30",
        "maxweight": "30",
        "name": "Rahu viadukt",
        "ref": "13109",
        "surface": "asphalt"
      }
    },
    {
      "type": "way",
      "id": 147454918,
      "nodes": [
        1606755885,
        302663892
      ],
      "tags": {
        "highway": "tertiary",
        "lanes": "2",
        "maxspeed": "50",
        "ref": "13109",
        "surface": "asphalt"
      }
    },
    {
      "type": "way",
      "id": 196250879,
      "nodes": [
        319135223,
        321252190,
        2066029460,
        2066029455,
        2066029446,
        7325141381,
        2066029436,
        319135222,
        321261027,
        319135221
      ],
      "tags": {
        "addr:postcode": "188490",
        "highway": "tertiary",
        "lit": "yes",
        "maxspeed": "RU:urban",
        "name": "улица Котовского",
        "name:de": "uliza Kotowskogo",
        "name:etymology:wikidata": "Q734839",
        "name:ru": "улица Котовского",
        "surface": "asphalt"
      }
    },
    {
      "type": "way",
      "id": 213373088,
      "nodes": [
        777298201,
        2310432215
      ],
      "tags": {
        "highway": "tertiary",
        "name": "Kudruküla — Leekova — Peeterristi",
        "ref": "13212"
      }
    },
    {
      "type": "way",
      "id": 228513565,
      "nodes": [
        540928880,
        2371835128,
        540909072,
        2371835243,
        540909076,
        540909080,
        3233643417,
        540909083,
        432842352
      ],
      "tags": {
        "highway": "tertiary",
        "lit": "yes",
        "maxspeed": "50",
        "name": "Vaksali",
        "ref": "13189",
        "surface": "asphalt"
      }
    },
    {
      "type": "way",
      "id": 245954327,
      "nodes": [
        442665913,
        287244840,
        3183376621,
        417987374,
        2387370378,
        9877758195,
        302670769,
        1974002294,
        287244841
      ],
      "tags": {
        "highway": "tertiary",
        "lit": "yes",
        "maxspeed": "50",
        "name": "Hariduse",
        "name:etymology:wikidata": "Q8434",
        "name:etymology:wikipedia": "et:Haridus",
        "ref": "91",
        "surface": "asphalt"
      }
    },
    {
      "type": "way",
      "id": 251579800,
      "nodes": [
        1376650152,
        2382408686,
        417980793,
        1376650151,
        8308409083,
        1089229822,
        417980798,
        417980802,
        3679866377,
        2552432076,
        417980777
      ],
      "tags": {
        "highway": "tertiary",
        "lanes": "1",
        "name": "Võidu prospekt",
        "name:ru": "проспект Победы",
        "oneway": "yes",
        "surface": "asphalt"
      }
    },
    {
      "type": "way",
      "id": 349480405,
      "nodes": [
        302663892,
        302663727
      ],
      "tags": {
        "highway": "tertiary",
        "lanes": "2",
        "maxspeed": "50",
        "ref": "13109",
        "surface": "asphalt"
      }
    },
    {
      "type": "way",
      "id": 360668254,
      "nodes": [
        3652258899,
        432845058,
        648976826
      ],
      "tags": {
        "highway": "tertiary",
        "maxspeed:backward": "90",
        "maxspeed:forward": "70",
        "name": "Peeterristi — Kudruküla",
        "ref": "13147",
        "surface": "asphalt"
      }
    },
    {
      "type": "way",
      "id": 360668255,
      "nodes": [
        432845060,
        10608596810,
        9879492959,
        648976823,
        432845059,
        1606756145,
        1258211119,
        648976824,
        9828985118,
        8139371
      ],
      "tags": {
        "highway": "tertiary",
        "maxspeed": "50",
        "name": "Peeterristi — Kudruküla",
        "ref": "13147",
        "surface": "asphalt"
      }
    },
    {
      "type": "way",
      "id": 442036539,
      "nodes": [
        4397281395,
        432842346
      ],
      "tags": {
        "highway": "tertiary",
        "maxspeed": "70",
        "name": "Lapiotsa - Soldina",
        "ref": "149",
        "surface": "asphalt"
      }
    },
    {
      "type": "way",
      "id": 442036540,
      "nodes": [
        432842346,
        2278632560,
        432842348
      ],
      "tags": {
        "highway": "tertiary",
        "maxspeed": "50",
        "name": "Lapiotsa - Soldina",
        "ref": "149",
        "surface": "asphalt"
      }
    },
    {
      "type": "way",
      "id": 442036541,
      "nodes": [
        540899669,
        540899655,
        1258209790,
        540899657,
        1258210549,
        540899659,
        540899666
      ],
      "tags": {
        "highway": "tertiary",
        "lit": "no",
        "maxspeed": "50",
        "name": "Narva — Arumäe",
        "ref": "13148",
        "surface": "compacted"
      }
    },
    {
      "type": "way",
      "id": 442036543,
      "nodes": [
        540899665,
        4397281393
      ],
      "tags": {
        "highway": "tertiary",
        "lit": "no",
        "maxspeed": "50",
        "name": "Narva — Arumäe",
        "ref": "13148",
        "surface": "asphalt"
      }
    },
    {
      "type": "way",
      "id": 442036544,
      "nodes": [
        4397281394,
        432842362,
        432842364,
        9938495290,
        9879492930,
        2911832532,
        2911832534,
        432842367,
        2911832535,
        2359008406,
        2911832539,
        11011071584,
        9879492931,
        9879492932,
        2359008387,
        432842371,
        9879492934,
        9879492933,
        2359008354,
        2359008323,
        2359008337,
        2552944156,
        432842373,
        2359008269,
        432842375,
        9879492935,
        432842379,
        9879492936,
        2359008249,
        432842381,
        9879492937,
        9879492938,
        432842383,
        11763401813,
        11763401814,
        11763401815,
        432842385,
        11763401816,
        2359008230,
        11763401817,
        432842387,
        11763401818,
        11763401821,
        11763401820,
        11763401819,
        7640723986,
        432842389,
        2359008238,
        6886228757,
        6886228756,
        6886228755,
        6886228754,
        6886228753,
        6886228752,
        1825145907,
        6886228751,
        432842391,
        1825145910,
        6869586608
      ],
      "tags": {
        "highway": "tertiary",
        "lit": "no",
        "maxspeed": "90",
        "name": "Narva — Arumäe",
        "ref": "13148",
        "surface": "asphalt"
      }
    },
    {
      "type": "way",
      "id": 442036545,
      "nodes": [
        432842358,
        540909109,
        432842360,
        4397281394
      ],
      "tags": {
        "highway": "tertiary",
        "lit": "no",
        "maxspeed:backward": "70",
        "maxspeed:forward": "90",
        "name": "Narva — Arumäe",
        "ref": "13148",
        "surface": "asphalt"
      }
    },
    {
      "type": "way",
      "id": 442036546,
      "nodes": [
        540909060,
        540909063,
        540928880
      ],
      "tags": {
        "highway": "tertiary",
        "lit": "yes",
        "maxspeed": "50",
        "name": "Soldina jaama tee",
        "ref": "13189",
        "surface": "asphalt"
      }
    },
    {
      "type": "way",
      "id": 515642352,
      "nodes": [
        540899666,
        1011509089,
        540931746,
        540899665
      ],
      "tags": {
        "highway": "tertiary",
        "lit": "no",
        "maxspeed": "50",
        "name": "Narva — Arumäe",
        "ref": "13148",
        "surface": "asphalt"
      }
    },
    {
      "type": "way",
      "id": 516689490,
      "nodes": [
        9884004950,
        4629256695,
        5043571836,
        525886348
      ],
      "tags": {
        "highway": "tertiary",
        "lanes": "2",
        "maxspeed": "50",
        "name": "Aleksander Puškini",
        "name:etymology:wikidata": "Q7200",
        "name:etymology:wikipedia": "et:Aleksandr Puškin",
        "name:ru": "улица Александра Пушкина",
        "oneway": "no",
        "surface": "asphalt"
      }
    },
    {
      "type": "way",
      "id": 718030537,
      "nodes": [
        2310432215,
        2310432245,
        6743287344,
        2230843620,
        2310432244,
        2230843622,
        2310432234,
        2310432249,
        2310432223,
        2310432252,
        2310432226,
        2310432211,
        2310432236,
        2230843627,
        2310432229,
        2310432208,
        2310432237,
        6070502620,
        2230843633
      ],
      "tags": {
        "highway": "tertiary",
        "name": "Lõuna-Kudruküla tee",
        "ref": "13212"
      }
    },
    {
      "type": "way",
      "id": 725977148,
      "nodes": [
        432842434,
        2367128742,
        432842433,
        2367128741,
        540909054,
        2367128740,
        2367128739,
        432842431
      ],
      "tags": {
        "alt_name": "Narva — Auvere",
        "highway": "tertiary",
        "lanes": "2",
        "maxspeed:backward": "90",
        "maxspeed:forward": "70",
        "name": "Elektrijaama tee",
        "ref": "13109",
        "surface": "asphalt"
      }
    },
    {
      "type": "way",
      "id": 733534250,
      "nodes": [
        6869586609,
        6869586610,
        10608522600,
        6869586611,
        10608522631,
        6869586612
      ],
      "tags": {
        "highway": "tertiary_link",
        "lanes": "1",
        "surface": "asphalt"
      }
    },
    {
      "type": "way",
      "id": 733534251,
      "nodes": [
        10608522670,
        10608522661,
        6869586616,
        6869586617,
        6869586618
      ],
      "tags": {
        "highway": "tertiary_link",
        "lanes": "1",
        "oneway": "yes",
        "surface": "asphalt"
      }
    },
    {
      "type": "way",
      "id": 821440442,
      "nodes": [
        10611592,
        899488247,
        899488783,
        7669707543
      ],
      "tags": {
        "highway": "tertiary",
        "lanes": "1",
        "lit": "yes",
        "maxspeed": "50",
        "name": "Raudsilla",
        "oneway": "yes",
        "sidewalk:left": "yes",
        "sidewalk:right": "separate",
        "surface": "asphalt"
      }
    },
    {
      "type": "way",
      "id": 822177274,
      "nodes": [
        417980785,
        8308409080,
        8308409081,
        8308409082,
        417980788
      ],
      "tags": {
        "highway": "tertiary",
        "lanes": "1",
        "oneway": "yes",
        "surface": "asphalt"
      }
    },
    {
      "type": "way",
      "id": 893916682,
      "nodes": [
        8308409060,
        8308409069,
        8308409070,
        8308409068,
        8308409067,
        8308409064
      ],
      "tags": {
        "highway": "tertiary",
        "lanes": "1",
        "maxspeed": "50",
        "name": "Aleksander Puškini",
        "name:etymology:wikidata": "Q7200",
        "name:etymology:wikipedia": "et:Aleksandr Puškin",
        "name:ru": "улица Александра Пушкина",
        "oneway": "yes",
        "surface": "asphalt"
      }
    },
    {
      "type": "way",
      "id": 893916683,
      "nodes": [
        8308409064,
        8308409066,
        8308409065,
        8136070
      ],
      "tags": {
        "highway": "tertiary",
        "lanes": "1",
        "maxspeed": "50",
        "name": "Aleksander Puškini",
        "name:etymology:wikidata": "Q7200",
        "name:etymology:wikipedia": "et:Aleksandr Puškin",
        "name:ru": "улица Александра Пушкина",
        "oneway": "yes",
        "surface": "asphalt"
      }
    },
    {
      "type": "way",
      "id": 893916687,
      "nodes": [
        8136070,
        6733405312
      ],
      "tags": {
        "highway": "tertiary",
        "lanes": "1",
        "name": "Aleksander Puškini",
        "name:etymology:wikidata": "Q7200",
        "name:etymology:wikipedia": "et:Aleksandr Puškin",
        "name:ru": "улица Александра Пушкина",
        "oneway": "yes",
        "surface": "asphalt"
      }
    },
    {
      "type": "way",
      "id": 893916689,
      "nodes": [
        302667593,
        2382408797,
        417980793
      ],
      "tags": {
        "highway": "tertiary_link",
        "lanes": "1",
        "name": "Võidu prospekt",
        "name:ru": "проспект Победы",
        "oneway": "yes",
        "surface": "asphalt"
      }
    },
    {
      "type": "way",
      "id": 1023225754,
      "nodes": [
        648976826,
        432845060
      ],
      "tags": {
        "highway": "tertiary",
        "maxspeed:backward": "90",
        "maxspeed:forward": "70",
        "name": "Peeterristi — Kudruküla",
        "ref": "13147",
        "surface": "asphalt"
      }
    },
    {
      "type": "way",
      "id": 1023225755,
      "nodes": [
        432845056,
        11093040200,
        432845057,
        3652258906,
        3652258905,
        3652258899
      ],
      "tags": {
        "highway": "tertiary",
        "name": "Peeterristi — Kudruküla",
        "ref": "13147",
        "surface": "asphalt"
      }
    },
    {
      "type": "way",
      "id": 1023225756,
      "nodes": [
        648976838,
        10609009679,
        10609009672,
        10609063133,
        2340286960,
        10609009681,
        648976834,
        10609009682,
        10609063132,
        10609009684,
        10609063128,
        432845052,
        1258209846,
        10609009677,
        648976829,
        432845053,
        8077566852
      ],
      "tags": {
        "highway": "tertiary",
        "name": "Peeterristi — Kudruküla",
        "ref": "13147",
        "surface": "asphalt"
      }
    },
    {
      "type": "way",
      "id": 1023234284,
      "nodes": [
        2559964760,
        9877811434,
        432842434
      ],
      "tags": {
        "alt_name": "Narva — Auvere",
        "highway": "tertiary",
        "lanes": "2",
        "maxspeed": "90",
        "name": "Elektrijaama tee",
        "ref": "13109",
        "surface": "asphalt"
      }
    },
    {
      "type": "way",
      "id": 1023234285,
      "nodes": [
        432842431,
        2276769466
      ],
      "tags": {
        "highway": "tertiary",
        "lanes": "2",
        "maxspeed:backward": "90",
        "maxspeed:forward": "70",
        "name": "Elektrijaama tee",
        "ref": "13109",
        "surface": "asphalt"
      }
    },
    {
      "type": "way",
      "id": 1023234286,
      "nodes": [
        432842344,
        4397281395
      ],
      "tags": {
        "highway": "tertiary",
        "maxspeed:backward": "90",
        "maxspeed:forward": "70",
        "name": "Lapiotsa - Soldina",
        "ref": "149",
        "surface": "asphalt"
      }
    },
    {
      "type": "way",
      "id": 1023234287,
      "nodes": [
        4397281393,
        432842358
      ],
      "tags": {
        "highway": "tertiary",
        "lit": "no",
        "maxspeed": "50",
        "name": "Narva — Arumäe",
        "ref": "13148",
        "surface": "asphalt"
      }
    },
    {
      "type": "way",
      "id": 1077295691,
      "nodes": [
        302663508,
        472966134,
        6912943434,
        8077012663,
        874195542,
        11515837194,
        5440050474,
        11515837190,
        9877758205,
        11515837184,
        9877758206
      ],
      "tags": {
        "highway": "tertiary",
        "lanes": "1",
        "maxspeed": "50",
        "name": "Soldina",
        "old_name": "Albert-August Tiimanni",
        "old_name:ru": "улица Альберта-Августа Тиймана",
        "surface": "asphalt"
      }
    },
    {
      "type": "way",
      "id": 1077295692,
      "nodes": [
        11155983,
        2558783450
      ],
      "tags": {
        "highway": "tertiary",
        "lanes": "1",
        "maxspeed": "50",
        "name": "Soldina",
        "old_name": "Albert-August Tiimanni",
        "old_name:ru": "улица Альберта-Августа Тиймана",
        "surface": "asphalt",
        "wikidata": "Q25519650"
      }
    },
    {
      "type": "way",
      "id": 1077503705,
      "nodes": [
        777298185,
        777298001,
        9879492958
      ],
      "tags": {
        "highway": "tertiary",
        "name": "Kudruküla — Leekova — Peeterristi",
        "ref": "13212",
        "surface": "asphalt"
      }
    },
    {
      "type": "way",
      "id": 1077503706,
      "nodes": [
        8077566852,
        777298185
      ],
      "tags": {
        "highway": "tertiary",
        "maxspeed": "70",
        "name": "Peeterristi — Kudruküla",
        "ref": "13147",
        "surface": "asphalt"
      }
    },
    {
      "type": "way",
      "id": 1077549060,
      "nodes": [
        10608437213,
        302663498,
        302663499
      ],
      "tags": {
        "highway": "tertiary",
        "lanes": "2",
        "maxspeed": "70",
        "name": "Elektrijaama tee",
        "ref": "13109",
        "surface": "asphalt"
      }
    },
    {
      "type": "way",
      "id": 1077549062,
      "nodes": [
        1258212012,
        9879864687,
        9879864688,
        9937743607,
        9937743608,
        302669081
      ],
      "tags": {
        "highway": "tertiary",
        "lanes": "2",
        "maxspeed": "70",
        "name": "Elektrijaama tee",
        "ref": "13109",
        "surface": "asphalt"
      }
    },
    {
      "type": "way",
      "id": 1077549066,
      "nodes": [
        302669081,
        9937743614,
        302663500,
        7851353118,
        302663501,
        7851353119,
        302663502,
        392708174
      ],
      "tags": {
        "highway": "tertiary",
        "lanes": "2",
        "maxspeed": "70",
        "name": "Elektrijaama tee",
        "ref": "13109",
        "surface": "asphalt"
      }
    },
    {
      "type": "way",
      "id": 1077549094,
      "nodes": [
        529554102,
        9877699636,
        9884004934,
        302664400,
        230347532
      ],
      "tags": {
        "highway": "tertiary",
        "lanes": "1",
        "lit": "yes",
        "maxspeed": "50",
        "name": "Vaivara",
        "sidewalk": "both",
        "surface": "asphalt"
      }
    },
    {
      "type": "way",
      "id": 1077882967,
      "nodes": [
        919683369,
        8308409085,
        8308409086,
        1376650152
      ],
      "tags": {
        "highway": "tertiary",
        "lanes": "1",
        "name": "Võidu prospekt",
        "name:ru": "проспект Победы",
        "oneway": "yes",
        "surface": "asphalt"
      }
    },
    {
      "type": "way",
      "id": 1078058711,
      "nodes": [
        523147377,
        8136122
      ],
      "tags": {
        "highway": "tertiary",
        "lanes": "2",
        "maxspeed": "50",
        "name": "Aleksander Puškini",
        "name:etymology:wikidata": "Q7200",
        "name:etymology:wikipedia": "et:Aleksandr Puškin",
        "name:ru": "улица Александра Пушкина",
        "oneway": "yes",
        "surface": "asphalt"
      }
    },
    {
      "type": "way",
      "id": 1078058712,
      "nodes": [
        392227186,
        9883933179,
        523147377
      ],
      "tags": {
        "highway": "tertiary",
        "lanes": "2",
        "maxspeed": "50",
        "name": "Aleksander Puškini",
        "name:etymology:wikidata": "Q7200",
        "name:etymology:wikipedia": "et:Aleksandr Puškin",
        "name:ru": "улица Александра Пушкина",
        "oneway": "yes",
        "surface": "asphalt"
      }
    },
    {
      "type": "way",
      "id": 1078064225,
      "nodes": [
        9884004962,
        9884004943,
        9884004944,
        9884004945,
        9884004958,
        9884004959,
        9884004946,
        9884004947,
        9884004948,
        9884004949,
        9884004960,
        9884004950,
        9884004951,
        9884004952,
        9884004961,
        9884004953,
        9884004954,
        9884004955,
        9884004956,
        9884004957,
        9884004962
      ],
      "tags": {
        "highway": "tertiary",
        "junction": "roundabout",
        "lanes": "1",
        "maxspeed": "50",
        "surface": "asphalt"
      }
    },
    {
      "type": "way",
      "id": 1078067549,
      "nodes": [
        230347532,
        9884004936
      ],
      "tags": {
        "highway": "tertiary",
        "lanes": "1",
        "lit": "yes",
        "maxspeed": "50",
        "name": "Vaivara",
        "sidewalk": "both",
        "surface": "asphalt"
      }
    },
    {
      "type": "way",
      "id": 1083453203,
      "nodes": [
        8077336435,
        9929031993,
        9929031992,
        9929031991,
        9929031985,
        1606755877
      ],
      "tags": {
        "highway": "tertiary",
        "junction": "roundabout"
      }
    },
    {
      "type": "way",
      "id": 1083453204,
      "nodes": [
        1606755871,
        1606755877
      ],
      "tags": {
        "highway": "tertiary",
        "lit": "yes",
        "name": "Raudsilla",
        "oneway": "yes",
        "surface": "asphalt"
      }
    },
    {
      "type": "way",
      "id": 1083453205,
      "nodes": [
        9929031983,
        5439930824
      ],
      "tags": {
        "highway": "tertiary",
        "oneway": "yes"
      }
    },
    {
      "type": "way",
      "id": 1083453206,
      "nodes": [
        1606755883,
        9929031986,
        9929031984,
        9929031983,
        9929031998,
        9929031997,
        9929031996,
        9929031995,
        9929031994,
        8077336435
      ],
      "tags": {
        "highway": "tertiary",
        "junction": "roundabout"
      }
    },
    {
      "type": "way",
      "id": 1083453207,
      "nodes": [
        1606755877,
        9929031990,
        9929031989,
        9929031988,
        9929031987,
        1606755883
      ],
      "tags": {
        "highway": "tertiary",
        "junction": "roundabout"
      }
    },
    {
      "type": "way",
      "id": 1084477504,
      "nodes": [
        9937743608,
        9937743609,
        9937743610,
        9937743611
      ],
      "tags": {
        "highway": "tertiary_link",
        "oneway": "yes"
      }
    },
    {
      "type": "way",
      "id": 1084477505,
      "nodes": [
        9937743611,
        9937743612,
        9937743613,
        9937743614
      ],
      "tags": {
        "highway": "tertiary_link",
        "oneway": "yes"
      }
    },
    {
      "type": "way",
      "id": 1102977105,
      "nodes": [
        8077336435,
        1606755874,
        1606755871
      ],
      "tags": {
        "highway": "tertiary",
        "lanes": "1",
        "lit": "yes",
        "maxspeed": "50",
        "name": "Vaivara",
        "oneway": "yes",
        "sidewalk": "both",
        "surface": "asphalt"
      }
    },
    {
      "type": "way",
      "id": 1102978364,
      "nodes": [
        5439930824,
        1606755880,
        899488915,
        8077336435
      ],
      "tags": {
        "highway": "tertiary",
        "lanes": "1",
        "lit": "yes",
        "maxspeed": "50",
        "name": "Vaivara",
        "oneway": "yes",
        "sidewalk": "both",
        "surface": "asphalt"
      }
    },
    {
      "type": "way",
      "id": 1138062920,
      "nodes": [
        2370788599,
        9877699642,
        2379019471
      ],
      "tags": {
        "highway": "tertiary",
        "lanes": "3",
        "lanes:backward": "2",
        "lanes:forward": "1",
        "maxspeed": "50",
        "name": "Kalda",
        "name:etymology:wikidata": "Q2897058",
        "name:etymology:wikipedia": "et:Kallas",
        "surface": "asphalt",
        "turn:lanes:backward": "left|through;right"
      }
    },
    {
      "type": "way",
      "id": 1138062921,
      "nodes": [
        2379019471,
        481227522,
        11155224
      ],
      "tags": {
        "highway": "tertiary",
        "lanes": "3",
        "lanes:backward": "2",
        "lanes:forward": "1",
        "maxspeed": "50",
        "name": "Kalda",
        "name:etymology:wikidata": "Q2897058",
        "name:etymology:wikipedia": "et:Kallas",
        "surface": "asphalt"
      }
    },
    {
      "type": "way",
      "id": 1138076506,
      "nodes": [
        10608437206,
        302663497
      ],
      "tags": {
        "highway": "tertiary",
        "lanes": "1",
        "maxspeed": "50",
        "name": "Elektrijaama tee",
        "oneway": "yes",
        "ref": "13109",
        "surface": "asphalt"
      }
    },
    {
      "type": "way",
      "id": 1138076507,
      "nodes": [
        432842398,
        10608437206
      ],
      "tags": {
        "highway": "tertiary",
        "lanes": "2",
        "maxspeed": "50",
        "name": "Elektrijaama tee",
        "oneway": "yes",
        "placement": "middle_of:2",
        "ref": "13109",
        "surface": "asphalt",
        "turn:lanes": "left|through"
      }
    },
    {
      "type": "way",
      "id": 1138076509,
      "nodes": [
        10608437221,
        10608404800,
        10608437222,
        10608437223
      ],
      "tags": {
        "highway": "tertiary",
        "lanes": "1",
        "maxspeed": "50",
        "name": "Elektrijaama tee",
        "oneway": "yes",
        "ref": "13109",
        "surface": "asphalt"
      }
    },
    {
      "type": "way",
      "id": 1138076510,
      "nodes": [
        10608437220,
        10608437221
      ],
      "tags": {
        "bridge": "yes",
        "highway": "tertiary",
        "lanes": "1",
        "layer": "1",
        "maxspeed": "50",
        "name": "Elektrijaama tee",
        "oneway": "yes",
        "ref": "13109",
        "surface": "asphalt"
      }
    },
    {
      "type": "way",
      "id": 1138076511,
      "nodes": [
        10608437223,
        10608437212,
        481211106,
        686703373
      ],
      "tags": {
        "highway": "tertiary",
        "lanes": "1",
        "maxspeed": "50",
        "name": "Elektrijaama tee",
        "oneway": "yes",
        "ref": "13109",
        "surface": "asphalt"
      }
    },
    {
      "type": "way",
      "id": 1138076513,
      "nodes": [
        10608437213,
        10608437214,
        10608437215,
        10608437216,
        10608437217,
        10608404804,
        10608437218,
        10608437219,
        10608437208,
        10608437220
      ],
      "tags": {
        "highway": "tertiary",
        "lanes": "1",
        "maxspeed": "50",
        "name": "Elektrijaama tee",
        "oneway": "yes",
        "ref": "13109",
        "surface": "asphalt"
      }
    },
    {
      "type": "way",
      "id": 1138086842,
      "nodes": [
        10608522657,
        8138325
      ],
      "tags": {
        "highway": "tertiary",
        "lanes": "1",
        "lit": "no",
        "maxspeed": "90",
        "name": "Narva — Arumäe",
        "oneway": "yes",
        "ref": "13148",
        "surface": "asphalt"
      }
    },
    {
      "type": "way",
      "id": 1138086843,
      "nodes": [
        8138325,
        10608522659
      ],
      "tags": {
        "highway": "tertiary",
        "lanes": "1",
        "lit": "no",
        "maxspeed": "90",
        "name": "Narva — Arumäe",
        "oneway": "yes",
        "ref": "13148",
        "surface": "asphalt"
      }
    },
    {
      "type": "way",
      "id": 1138086846,
      "nodes": [
        6869586608,
        10608522601,
        6869586609
      ],
      "tags": {
        "highway": "tertiary",
        "lanes": "1",
        "lit": "no",
        "maxspeed": "90",
        "name": "Narva — Arumäe",
        "oneway": "yes",
        "ref": "13148",
        "surface": "asphalt"
      }
    },
    {
      "type": "way",
      "id": 1138086847,
      "nodes": [
        6869586609,
        10608522658,
        10608522657
      ],
      "tags": {
        "highway": "tertiary",
        "lanes": "1",
        "lit": "no",
        "maxspeed": "90",
        "name": "Narva — Arumäe",
        "oneway": "yes",
        "ref": "13148",
        "surface": "asphalt"
      }
    },
    {
      "type": "way",
      "id": 1138086848,
      "nodes": [
        10608522659,
        6869586618,
        10608522602,
        6869586608
      ],
      "tags": {
        "highway": "tertiary",
        "lanes": "1",
        "lit": "no",
        "maxspeed": "90",
        "name": "Narva — Arumäe",
        "oneway": "yes",
        "ref": "13148",
        "surface": "asphalt"
      }
    },
    {
      "type": "way",
      "id": 1249581017,
      "nodes": [
        29926224,
        9668246850
      ],
      "tags": {
        "bicycle": "yes",
        "highway": "tertiary",
        "maxspeed": "50",
        "name": "Sepa",
        "name:etymology:wikidata": "Q1639825",
        "name:etymology:wikipedia": "et:Sepp",
        "ref": "91",
        "surface": "asphalt"
      }
    },
    {
      "type": "node",
      "id": 540899605,
      "lat": 59.3485053,
      "lon": 28.0274082
    },
    {
      "type": "node",
      "id": 540899608,
      "lat": 59.3493787,
      "lon": 28.027859
    },
    {
      "type": "node",
      "id": 2552944066,
      "lat": 59.349718,
      "lon": 28.0285409
    },
    {
      "type": "node",
      "id": 2552944203,
      "lat": 59.350026,
      "lon": 28.0289095
    },
    {
      "type": "node",
      "id": 2552944280,
      "lat": 59.3495635,
      "lon": 28.0280716
    },
    {
      "type": "node",
      "id": 2552944299,
      "lat": 59.3501873,
      "lon": 28.0291482
    },
    {
      "type": "node",
      "id": 2552944375,
      "lat": 59.3498332,
      "lon": 28.0287201
    },
    {
      "type": "node",
      "id": 9877811436,
      "lat": 59.3486647,
      "lon": 28.02843
    },
    {
      "type": "node",
      "id": 540899610,
      "lat": 59.3514476,
      "lon": 28.0316413
    },
    {
      "type": "node",
      "id": 540899611,
      "lat": 59.3522626,
      "lon": 28.0329333
    },
    {
      "type": "node",
      "id": 540899614,
      "lat": 59.3524989,
      "lon": 28.034253
    },
    {
      "type": "node",
      "id": 2287048228,
      "lat": 59.3521387,
      "lon": 28.0326077
    },
    {
      "type": "node",
      "id": 2287048234,
      "lat": 59.351124,
      "lon": 28.0310497
    },
    {
      "type": "node",
      "id": 2287048248,
      "lat": 59.352361,
      "lon": 28.0334333
    },
    {
      "type": "node",
      "id": 2552944445,
      "lat": 59.3509475,
      "lon": 28.0306046
    },
    {
      "type": "node",
      "id": 6796477319,
      "lat": 59.3494891,
      "lon": 28.0337162
    },
    {
      "type": "node",
      "id": 1825145732,
      "lat": 59.3507141,
      "lon": 28.0415703
    },
    {
      "type": "node",
      "id": 1825145733,
      "lat": 59.3508024,
      "lon": 28.0422061
    },
    {
      "type": "node",
      "id": 7640736503,
      "lat": 59.3507207,
      "lon": 28.0416177
    },
    {
      "type": "node",
      "id": 432842435,
      "lat": 59.3509106,
      "lon": 28.0433162
    },
    {
      "type": "node",
      "id": 540899616,
      "lat": 59.3528782,
      "lon": 28.0355769
    },
    {
      "type": "node",
      "id": 540899619,
      "lat": 59.3531347,
      "lon": 28.0363102
    },
    {
      "type": "node",
      "id": 540899621,
      "lat": 59.353418,
      "lon": 28.036808
    },
    {
      "type": "node",
      "id": 540899623,
      "lat": 59.3541075,
      "lon": 28.0376048
    },
    {
      "type": "node",
      "id": 540899625,
      "lat": 59.3573441,
      "lon": 28.0402828
    },
    {
      "type": "node",
      "id": 540899627,
      "lat": 59.3588357,
      "lon": 28.0408626
    },
    {
      "type": "node",
      "id": 2702921755,
      "lat": 59.3547622,
      "lon": 28.0381464
    },
    {
      "type": "node",
      "id": 5341258002,
      "lat": 59.3571965,
      "lon": 28.0401607
    },
    {
      "type": "node",
      "id": 7640736527,
      "lat": 59.3535887,
      "lon": 28.0370053
    },
    {
      "type": "node",
      "id": 540899629,
      "lat": 59.3594267,
      "lon": 28.0412491
    },
    {
      "type": "node",
      "id": 540899631,
      "lat": 59.3598059,
      "lon": 28.041784
    },
    {
      "type": "node",
      "id": 540899634,
      "lat": 59.3609322,
      "lon": 28.0466328
    },
    {
      "type": "node",
      "id": 540899636,
      "lat": 59.360953,
      "lon": 28.0472304
    },
    {
      "type": "node",
      "id": 540899638,
      "lat": 59.3608337,
      "lon": 28.0484273
    },
    {
      "type": "node",
      "id": 540899640,
      "lat": 59.3607915,
      "lon": 28.0491728
    },
    {
      "type": "node",
      "id": 540899718,
      "lat": 59.3601159,
      "lon": 28.0428566
    },
    {
      "type": "node",
      "id": 2702921775,
      "lat": 59.3602678,
      "lon": 28.0435591
    },
    {
      "type": "node",
      "id": 2559964760,
      "lat": 59.3522352,
      "lon": 28.0698979
    },
    {
      "type": "node",
      "id": 9877811434,
      "lat": 59.3522417,
      "lon": 28.0700498
    },
    {
      "type": "node",
      "id": 10608392332,
      "lat": 59.3522284,
      "lon": 28.0697611
    },
    {
      "type": "node",
      "id": 540899643,
      "lat": 59.36089,
      "lon": 28.0498906
    },
    {
      "type": "node",
      "id": 540899645,
      "lat": 59.3617061,
      "lon": 28.0539767
    },
    {
      "type": "node",
      "id": 540899646,
      "lat": 59.3619452,
      "lon": 28.0546393
    },
    {
      "type": "node",
      "id": 540899647,
      "lat": 59.3624982,
      "lon": 28.0555429
    },
    {
      "type": "node",
      "id": 540899714,
      "lat": 59.3612783,
      "lon": 28.0516077
    },
    {
      "type": "node",
      "id": 2702921828,
      "lat": 59.3616548,
      "lon": 28.0537749
    },
    {
      "type": "node",
      "id": 540899648,
      "lat": 59.3626628,
      "lon": 28.056213
    },
    {
      "type": "node",
      "id": 540899649,
      "lat": 59.3631957,
      "lon": 28.0620936
    },
    {
      "type": "node",
      "id": 540899706,
      "lat": 59.3628875,
      "lon": 28.0591539
    },
    {
      "type": "node",
      "id": 540899690,
      "lat": 59.364808,
      "lon": 28.0670743
    },
    {
      "type": "node",
      "id": 540899693,
      "lat": 59.364411,
      "lon": 28.0650513
    },
    {
      "type": "node",
      "id": 540899696,
      "lat": 59.3647697,
      "lon": 28.06616
    },
    {
      "type": "node",
      "id": 540899698,
      "lat": 59.3647112,
      "lon": 28.0658518
    },
    {
      "type": "node",
      "id": 540899701,
      "lat": 59.3637029,
      "lon": 28.0635982
    },
    {
      "type": "node",
      "id": 540899703,
      "lat": 59.3634227,
      "lon": 28.0628702
    },
    {
      "type": "node",
      "id": 540899711,
      "lat": 59.3651876,
      "lon": 28.0685795
    },
    {
      "type": "node",
      "id": 540899712,
      "lat": 59.364955,
      "lon": 28.0678451
    },
    {
      "type": "node",
      "id": 2276769431,
      "lat": 59.3653462,
      "lon": 28.0690071
    },
    {
      "type": "node",
      "id": 2276769506,
      "lat": 59.3648566,
      "lon": 28.0674331
    },
    {
      "type": "node",
      "id": 540899707,
      "lat": 59.3655513,
      "lon": 28.0693914
    },
    {
      "type": "node",
      "id": 432842429,
      "lat": 59.3503917,
      "lon": 28.1007477
    },
    {
      "type": "node",
      "id": 432842430,
      "lat": 59.3507635,
      "lon": 28.0989174
    },
    {
      "type": "node",
      "id": 686703338,
      "lat": 59.3518439,
      "lon": 28.0970796
    },
    {
      "type": "node",
      "id": 686703339,
      "lat": 59.3514869,
      "lon": 28.0976386
    },
    {
      "type": "node",
      "id": 2267363264,
      "lat": 59.3505088,
      "lon": 28.0996952
    },
    {
      "type": "node",
      "id": 2267363293,
      "lat": 59.3519983,
      "lon": 28.0968448
    },
    {
      "type": "node",
      "id": 2276769464,
      "lat": 59.352136,
      "lon": 28.0966354
    },
    {
      "type": "node",
      "id": 2276769466,
      "lat": 59.3526714,
      "lon": 28.0958088
    },
    {
      "type": "node",
      "id": 432842433,
      "lat": 59.3533762,
      "lon": 28.0938788
    },
    {
      "type": "node",
      "id": 432842434,
      "lat": 59.353376,
      "lon": 28.0927923
    },
    {
      "type": "node",
      "id": 540909054,
      "lat": 59.3532445,
      "lon": 28.0946445
    },
    {
      "type": "node",
      "id": 2367128739,
      "lat": 59.3530258,
      "lon": 28.0952191
    },
    {
      "type": "node",
      "id": 2367128740,
      "lat": 59.3531541,
      "lon": 28.0949224
    },
    {
      "type": "node",
      "id": 2367128741,
      "lat": 59.3533229,
      "lon": 28.0942949
    },
    {
      "type": "node",
      "id": 2367128742,
      "lat": 59.353394,
      "lon": 28.0934386
    },
    {
      "type": "node",
      "id": 432842431,
      "lat": 59.3528051,
      "lon": 28.0956177
    },
    {
      "type": "node",
      "id": 540909060,
      "lat": 59.3687404,
      "lon": 28.0605012
    },
    {
      "type": "node",
      "id": 540909063,
      "lat": 59.3687707,
      "lon": 28.0612157
    },
    {
      "type": "node",
      "id": 432842348,
      "lat": 59.3720465,
      "lon": 28.0682708
    },
    {
      "type": "node",
      "id": 2278632560,
      "lat": 59.372233,
      "lon": 28.0680939
    },
    {
      "type": "node",
      "id": 9938495224,
      "lat": 59.3717844,
      "lon": 28.06874
    },
    {
      "type": "node",
      "id": 432842352,
      "lat": 59.3697716,
      "lon": 28.0724746
    },
    {
      "type": "node",
      "id": 432842354,
      "lat": 59.3694208,
      "lon": 28.0742352
    },
    {
      "type": "node",
      "id": 540899651,
      "lat": 59.3665045,
      "lon": 28.0721426
    },
    {
      "type": "node",
      "id": 540899653,
      "lat": 59.3668306,
      "lon": 28.0728815
    },
    {
      "type": "node",
      "id": 540899655,
      "lat": 59.3682013,
      "lon": 28.0743622
    },
    {
      "type": "node",
      "id": 540899657,
      "lat": 59.368382,
      "lon": 28.0749342
    },
    {
      "type": "node",
      "id": 540899669,
      "lat": 59.3678836,
      "lon": 28.0739358
    },
    {
      "type": "node",
      "id": 540899687,
      "lat": 59.3672025,
      "lon": 28.0733581
    },
    {
      "type": "node",
      "id": 540899708,
      "lat": 59.3662932,
      "lon": 28.0708371
    },
    {
      "type": "node",
      "id": 540899710,
      "lat": 59.3659358,
      "lon": 28.0699786
    },
    {
      "type": "node",
      "id": 540909072,
      "lat": 59.3692068,
      "lon": 28.0697987
    },
    {
      "type": "node",
      "id": 540909076,
      "lat": 59.3695554,
      "lon": 28.0706499
    },
    {
      "type": "node",
      "id": 540909080,
      "lat": 59.3696682,
      "lon": 28.0711632
    },
    {
      "type": "node",
      "id": 540909083,
      "lat": 59.3697228,
      "lon": 28.0721979
    },
    {
      "type": "node",
      "id": 540909087,
      "lat": 59.3698382,
      "lon": 28.0723237
    },
    {
      "type": "node",
      "id": 540909092,
      "lat": 59.3709564,
      "lon": 28.0702223
    },
    {
      "type": "node",
      "id": 540909096,
      "lat": 59.3704158,
      "lon": 28.0711634
    },
    {
      "type": "node",
      "id": 540909100,
      "lat": 59.3695101,
      "lon": 28.0736056
    },
    {
      "type": "node",
      "id": 540909104,
      "lat": 59.3693408,
      "lon": 28.0753384
    },
    {
      "type": "node",
      "id": 540928880,
      "lat": 59.3690665,
      "lon": 28.0692159
    },
    {
      "type": "node",
      "id": 1258209790,
      "lat": 59.3683222,
      "lon": 28.074584
    },
    {
      "type": "node",
      "id": 1258210549,
      "lat": 59.3683445,
      "lon": 28.0754359
    },
    {
      "type": "node",
      "id": 2276769391,
      "lat": 59.3661804,
      "lon": 28.0704361
    },
    {
      "type": "node",
      "id": 2276769420,
      "lat": 59.3666738,
      "lon": 28.0725747
    },
    {
      "type": "node",
      "id": 2276769487,
      "lat": 59.3664182,
      "lon": 28.0716981
    },
    {
      "type": "node",
      "id": 2360962862,
      "lat": 59.3693699,
      "lon": 28.0746982
    },
    {
      "type": "node",
      "id": 2371835128,
      "lat": 59.3691132,
      "lon": 28.069521
    },
    {
      "type": "node",
      "id": 2371835243,
      "lat": 59.3693761,
      "lon": 28.0702181
    },
    {
      "type": "node",
      "id": 2371835363,
      "lat": 59.3696438,
      "lon": 28.0729581
    },
    {
      "type": "node",
      "id": 3233643417,
      "lat": 59.3697111,
      "lon": 28.0717142
    },
    {
      "type": "node",
      "id": 9879492939,
      "lat": 59.3698808,
      "lon": 28.0722264
    },
    {
      "type": "node",
      "id": 9938485442,
      "lat": 59.3700243,
      "lon": 28.07195
    },
    {
      "type": "node",
      "id": 9938485502,
      "lat": 59.3703258,
      "lon": 28.0713443
    },
    {
      "type": "node",
      "id": 9938495227,
      "lat": 59.3702796,
      "lon": 28.0714371
    },
    {
      "type": "node",
      "id": 9938495323,
      "lat": 59.3697391,
      "lon": 28.0725977
    },
    {
      "type": "node",
      "id": 10608522673,
      "lat": 59.3699266,
      "lon": 28.0721382
    },
    {
      "type": "node",
      "id": 432842346,
      "lat": 59.3726052,
      "lon": 28.0682925
    },
    {
      "type": "node",
      "id": 4397281395,
      "lat": 59.3732341,
      "lon": 28.068667
    },
    {
      "type": "node",
      "id": 432842341,
      "lat": 59.3758875,
      "lon": 28.0706066
    },
    {
      "type": "node",
      "id": 432842344,
      "lat": 59.3739644,
      "lon": 28.0691122
    },
    {
      "type": "node",
      "id": 2278632447,
      "lat": 59.3766767,
      "lon": 28.0715173
    },
    {
      "type": "node",
      "id": 2278632563,
      "lat": 59.3751257,
      "lon": 28.069913
    },
    {
      "type": "node",
      "id": 9938485438,
      "lat": 59.374434,
      "lon": 28.0694361
    },
    {
      "type": "node",
      "id": 432842358,
      "lat": 59.3694014,
      "lon": 28.0797614
    },
    {
      "type": "node",
      "id": 432842360,
      "lat": 59.3696228,
      "lon": 28.0815574
    },
    {
      "type": "node",
      "id": 540899659,
      "lat": 59.3683655,
      "lon": 28.0759747
    },
    {
      "type": "node",
      "id": 540899665,
      "lat": 59.3693521,
      "lon": 28.0762415
    },
    {
      "type": "node",
      "id": 540899666,
      "lat": 59.368434,
      "lon": 28.0762567
    },
    {
      "type": "node",
      "id": 540909109,
      "lat": 59.3694758,
      "lon": 28.0806967
    },
    {
      "type": "node",
      "id": 540931746,
      "lat": 59.3690545,
      "lon": 28.0762586
    },
    {
      "type": "node",
      "id": 1011509089,
      "lat": 59.3690041,
      "lon": 28.0762584
    },
    {
      "type": "node",
      "id": 4397281393,
      "lat": 59.369347,
      "lon": 28.0779769
    },
    {
      "type": "node",
      "id": 432842362,
      "lat": 59.3703222,
      "lon": 28.0846117
    },
    {
      "type": "node",
      "id": 432842364,
      "lat": 59.3703594,
      "lon": 28.0863411
    },
    {
      "type": "node",
      "id": 2911832532,
      "lat": 59.370367,
      "lon": 28.0885686
    },
    {
      "type": "node",
      "id": 4397281394,
      "lat": 59.3701279,
      "lon": 28.0837256
    },
    {
      "type": "node",
      "id": 9879492930,
      "lat": 59.3703635,
      "lon": 28.0875536
    },
    {
      "type": "node",
      "id": 9938495290,
      "lat": 59.3703624,
      "lon": 28.0872399
    },
    {
      "type": "node",
      "id": 432842367,
      "lat": 59.3704097,
      "lon": 28.0909834
    },
    {
      "type": "node",
      "id": 2359008406,
      "lat": 59.3707646,
      "lon": 28.0932688
    },
    {
      "type": "node",
      "id": 2911832534,
      "lat": 59.3703806,
      "lon": 28.0903504
    },
    {
      "type": "node",
      "id": 2911832535,
      "lat": 59.370464,
      "lon": 28.0915869
    },
    {
      "type": "node",
      "id": 2911832539,
      "lat": 59.371163,
      "lon": 28.0952584
    },
    {
      "type": "node",
      "id": 2359008387,
      "lat": 59.3717441,
      "lon": 28.098242
    },
    {
      "type": "node",
      "id": 9879492931,
      "lat": 59.3713553,
      "lon": 28.0962206
    },
    {
      "type": "node",
      "id": 9879492932,
      "lat": 59.3715829,
      "lon": 28.0974333
    },
    {
      "type": "node",
      "id": 11011071584,
      "lat": 59.371197,
      "lon": 28.0954286
    },
    {
      "type": "node",
      "id": 432842339,
      "lat": 59.3838653,
      "lon": 28.0798143
    },
    {
      "type": "node",
      "id": 1258212024,
      "lat": 59.3846404,
      "lon": 28.0805187
    },
    {
      "type": "node",
      "id": 2298698838,
      "lat": 59.3809045,
      "lon": 28.0763967
    },
    {
      "type": "node",
      "id": 2298698847,
      "lat": 59.3843789,
      "lon": 28.0803463
    },
    {
      "type": "node",
      "id": 11718031286,
      "lat": 59.3854195,
      "lon": 28.0809419
    },
    {
      "type": "node",
      "id": 11718031287,
      "lat": 59.3852116,
      "lon": 28.0808625
    },
    {
      "type": "node",
      "id": 11718031288,
      "lat": 59.3848114,
      "lon": 28.0806416
    },
    {
      "type": "node",
      "id": 432842322,
      "lat": 59.3911127,
      "lon": 28.0771332
    },
    {
      "type": "node",
      "id": 432842324,
      "lat": 59.3882116,
      "lon": 28.079993
    },
    {
      "type": "node",
      "id": 432842326,
      "lat": 59.3869487,
      "lon": 28.0809091
    },
    {
      "type": "node",
      "id": 432842327,
      "lat": 59.3855825,
      "lon": 28.0809841
    },
    {
      "type": "node",
      "id": 1258210113,
      "lat": 59.3862155,
      "lon": 28.0810675
    },
    {
      "type": "node",
      "id": 1258210875,
      "lat": 59.3875794,
      "lon": 28.0805715
    },
    {
      "type": "node",
      "id": 1258211814,
      "lat": 59.3902118,
      "lon": 28.0778269
    },
    {
      "type": "node",
      "id": 8139371,
      "lat": 59.4009712,
      "lon": 28.0647134
    },
    {
      "type": "node",
      "id": 432845058,
      "lat": 59.403932,
      "lon": 28.0665723
    },
    {
      "type": "node",
      "id": 432845059,
      "lat": 59.402084,
      "lon": 28.0651008
    },
    {
      "type": "node",
      "id": 432845060,
      "lat": 59.4031786,
      "lon": 28.0660502
    },
    {
      "type": "node",
      "id": 648976823,
      "lat": 59.4026228,
      "lon": 28.0655236
    },
    {
      "type": "node",
      "id": 648976824,
      "lat": 59.4014456,
      "lon": 28.0648332
    },
    {
      "type": "node",
      "id": 648976826,
      "lat": 59.4035829,
      "lon": 28.066401
    },
    {
      "type": "node",
      "id": 1258211119,
      "lat": 59.4016231,
      "lon": 28.0648987
    },
    {
      "type": "node",
      "id": 1606756145,
      "lat": 59.401867,
      "lon": 28.0649865
    },
    {
      "type": "node",
      "id": 3652258899,
      "lat": 59.4043567,
      "lon": 28.066594
    },
    {
      "type": "node",
      "id": 3652258905,
      "lat": 59.4047918,
      "lon": 28.0666217
    },
    {
      "type": "node",
      "id": 9828985118,
      "lat": 59.4011368,
      "lon": 28.0647552
    },
    {
      "type": "node",
      "id": 9879492959,
      "lat": 59.4027719,
      "lon": 28.0656558
    },
    {
      "type": "node",
      "id": 10608596810,
      "lat": 59.4030364,
      "lon": 28.0659123
    },
    {
      "type": "node",
      "id": 777298008,
      "lat": 59.4127332,
      "lon": 28.0557861
    },
    {
      "type": "node",
      "id": 777298201,
      "lat": 59.4128584,
      "lon": 28.0554803
    },
    {
      "type": "node",
      "id": 6743287336,
      "lat": 59.412787,
      "lon": 28.0555915
    },
    {
      "type": "node",
      "id": 578421608,
      "lat": 59.4131495,
      "lon": 28.0620812
    },
    {
      "type": "node",
      "id": 777298019,
      "lat": 59.412774,
      "lon": 28.0609881
    },
    {
      "type": "node",
      "id": 777298143,
      "lat": 59.4127492,
      "lon": 28.0595374
    },
    {
      "type": "node",
      "id": 777298178,
      "lat": 59.4126673,
      "lon": 28.0585889
    },
    {
      "type": "node",
      "id": 777298198,
      "lat": 59.4130267,
      "lon": 28.0615961
    },
    {
      "type": "node",
      "id": 777298206,
      "lat": 59.4128612,
      "lon": 28.0613216
    },
    {
      "type": "node",
      "id": 2230843620,
      "lat": 59.414221,
      "lon": 28.0576085
    },
    {
      "type": "node",
      "id": 2230843622,
      "lat": 59.4143939,
      "lon": 28.0580342
    },
    {
      "type": "node",
      "id": 2310432211,
      "lat": 59.4170933,
      "lon": 28.0623252
    },
    {
      "type": "node",
      "id": 2310432215,
      "lat": 59.4134064,
      "lon": 28.0563101
    },
    {
      "type": "node",
      "id": 2310432223,
      "lat": 59.4157645,
      "lon": 28.0602042
    },
    {
      "type": "node",
      "id": 2310432226,
      "lat": 59.4166021,
      "lon": 28.0615187
    },
    {
      "type": "node",
      "id": 2310432234,
      "lat": 59.4147573,
      "lon": 28.0586369
    },
    {
      "type": "node",
      "id": 2310432244,
      "lat": 59.4143313,
      "lon": 28.0578715
    },
    {
      "type": "node",
      "id": 2310432245,
      "lat": 59.4139234,
      "lon": 28.0570938
    },
    {
      "type": "node",
      "id": 2310432249,
      "lat": 59.4152856,
      "lon": 28.0594595
    },
    {
      "type": "node",
      "id": 2310432252,
      "lat": 59.4161934,
      "lon": 28.0608655
    },
    {
      "type": "node",
      "id": 6743287333,
      "lat": 59.4126665,
      "lon": 28.0578757
    },
    {
      "type": "node",
      "id": 6743287334,
      "lat": 59.4126823,
      "lon": 28.0588644
    },
    {
      "type": "node",
      "id": 6743287335,
      "lat": 59.4127182,
      "lon": 28.0559633
    },
    {
      "type": "node",
      "id": 6743287337,
      "lat": 59.4127978,
      "lon": 28.0611575
    },
    {
      "type": "node",
      "id": 6743287338,
      "lat": 59.4131034,
      "lon": 28.0617912
    },
    {
      "type": "node",
      "id": 6743287344,
      "lat": 59.414096,
      "lon": 28.0573742
    },
    {
      "type": "node",
      "id": 432845056,
      "lat": 59.4089568,
      "lon": 28.0676872
    },
    {
      "type": "node",
      "id": 432845057,
      "lat": 59.4069802,
      "lon": 28.0669454
    },
    {
      "type": "node",
      "id": 648976827,
      "lat": 59.4106912,
      "lon": 28.0684991
    },
    {
      "type": "node",
      "id": 3652258906,
      "lat": 59.4054353,
      "lon": 28.0666627
    },
    {
      "type": "node",
      "id": 11093040200,
      "lat": 59.4072236,
      "lon": 28.0670368
    },
    {
      "type": "node",
      "id": 432845055,
      "lat": 59.4113382,
      "lon": 28.0691956
    },
    {
      "type": "node",
      "id": 648976828,
      "lat": 59.4116189,
      "lon": 28.0697315
    },
    {
      "type": "node",
      "id": 777297992,
      "lat": 59.413194,
      "lon": 28.0637516
    },
    {
      "type": "node",
      "id": 777298017,
      "lat": 59.4129008,
      "lon": 28.0683312
    },
    {
      "type": "node",
      "id": 777298138,
      "lat": 59.4129663,
      "lon": 28.066547
    },
    {
      "type": "node",
      "id": 777298151,
      "lat": 59.4131586,
      "lon": 28.0659375
    },
    {
      "type": "node",
      "id": 777298211,
      "lat": 59.4128981,
      "lon": 28.0673638
    },
    {
      "type": "node",
      "id": 2230843627,
      "lat": 59.4177782,
      "lon": 28.0634335
    },
    {
      "type": "node",
      "id": 2231602511,
      "lat": 59.4128987,
      "lon": 28.067586
    },
    {
      "type": "node",
      "id": 2231602515,
      "lat": 59.4131619,
      "lon": 28.0658016
    },
    {
      "type": "node",
      "id": 2310432236,
      "lat": 59.4172593,
      "lon": 28.0625973
    },
    {
      "type": "node",
      "id": 6743287340,
      "lat": 59.4131908,
      "lon": 28.0628625
    },
    {
      "type": "node",
      "id": 9879492957,
      "lat": 59.413193,
      "lon": 28.0634728
    },
    {
      "type": "node",
      "id": 10608568908,
      "lat": 59.4131938,
      "lon": 28.0636869
    },
    {
      "type": "node",
      "id": 432845054,
      "lat": 59.411777,
      "lon": 28.0703928
    },
    {
      "type": "node",
      "id": 777298001,
      "lat": 59.4125509,
      "lon": 28.0704846
    },
    {
      "type": "node",
      "id": 777298009,
      "lat": 59.4129881,
      "lon": 28.0702037
    },
    {
      "type": "node",
      "id": 777298185,
      "lat": 59.4118244,
      "lon": 28.0708008
    },
    {
      "type": "node",
      "id": 777298196,
      "lat": 59.4129246,
      "lon": 28.070352
    },
    {
      "type": "node",
      "id": 777298204,
      "lat": 59.4129921,
      "lon": 28.0697668
    },
    {
      "type": "node",
      "id": 2231602513,
      "lat": 59.4129903,
      "lon": 28.0699669
    },
    {
      "type": "node",
      "id": 8077566852,
      "lat": 59.4118322,
      "lon": 28.0708679
    },
    {
      "type": "node",
      "id": 9879492958,
      "lat": 59.4128074,
      "lon": 28.0703936
    },
    {
      "type": "node",
      "id": 8138447,
      "lat": 59.3956838,
      "lon": 28.0787646
    },
    {
      "type": "node",
      "id": 432842316,
      "lat": 59.3949008,
      "lon": 28.077446
    },
    {
      "type": "node",
      "id": 432842319,
      "lat": 59.3931376,
      "lon": 28.0766863
    },
    {
      "type": "node",
      "id": 1258209626,
      "lat": 59.395186,
      "lon": 28.0776137
    },
    {
      "type": "node",
      "id": 1258210380,
      "lat": 59.3954938,
      "lon": 28.0781609
    },
    {
      "type": "node",
      "id": 1258211239,
      "lat": 59.3953815,
      "lon": 28.0778785
    },
    {
      "type": "node",
      "id": 1258211546,
      "lat": 59.3921219,
      "lon": 28.0767043
    },
    {
      "type": "node",
      "id": 432845052,
      "lat": 59.4141386,
      "lon": 28.0881507
    },
    {
      "type": "node",
      "id": 432845053,
      "lat": 59.4135186,
      "lon": 28.0853881
    },
    {
      "type": "node",
      "id": 648976829,
      "lat": 59.413806,
      "lon": 28.0869233
    },
    {
      "type": "node",
      "id": 1258209846,
      "lat": 59.4141017,
      "lon": 28.0880263
    },
    {
      "type": "node",
      "id": 10609009677,
      "lat": 59.4140308,
      "lon": 28.0877619
    },
    {
      "type": "node",
      "id": 648976834,
      "lat": 59.415719,
      "lon": 28.0932164
    },
    {
      "type": "node",
      "id": 10609009681,
      "lat": 59.4162978,
      "lon": 28.095112
    },
    {
      "type": "node",
      "id": 10609009682,
      "lat": 59.4154296,
      "lon": 28.0923073
    },
    {
      "type": "node",
      "id": 10609009684,
      "lat": 59.4148457,
      "lon": 28.0904221
    },
    {
      "type": "node",
      "id": 10609063128,
      "lat": 59.4144824,
      "lon": 28.0892632
    },
    {
      "type": "node",
      "id": 10609063132,
      "lat": 59.4149865,
      "lon": 28.0908713
    },
    {
      "type": "node",
      "id": 648976838,
      "lat": 59.4177984,
      "lon": 28.1001367
    },
    {
      "type": "node",
      "id": 2340286960,
      "lat": 59.4163899,
      "lon": 28.0954136
    },
    {
      "type": "node",
      "id": 10609009672,
      "lat": 59.4171476,
      "lon": 28.0979542
    },
    {
      "type": "node",
      "id": 10609009679,
      "lat": 59.4176714,
      "lon": 28.0997107
    },
    {
      "type": "node",
      "id": 10609063133,
      "lat": 59.416696,
      "lon": 28.0964401
    },
    {
      "type": "node",
      "id": 2230843633,
      "lat": 59.420024,
      "lon": 28.0669989
    },
    {
      "type": "node",
      "id": 2310432208,
      "lat": 59.4188233,
      "lon": 28.0651189
    },
    {
      "type": "node",
      "id": 2310432229,
      "lat": 59.4182961,
      "lon": 28.0642616
    },
    {
      "type": "node",
      "id": 2310432237,
      "lat": 59.4193356,
      "lon": 28.0659444
    },
    {
      "type": "node",
      "id": 6070502620,
      "lat": 59.4199491,
      "lon": 28.0668907
    },
    {
      "type": "node",
      "id": 432842428,
      "lat": 59.3503116,
      "lon": 28.1079545
    },
    {
      "type": "node",
      "id": 12413079633,
      "lat": 59.3502961,
      "lon": 28.1092861
    },
    {
      "type": "node",
      "id": 432842427,
      "lat": 59.3502271,
      "lon": 28.1176896
    },
    {
      "type": "node",
      "id": 2266267752,
      "lat": 59.3499674,
      "lon": 28.1210626
    },
    {
      "type": "node",
      "id": 2266267755,
      "lat": 59.3500694,
      "lon": 28.1200825
    },
    {
      "type": "node",
      "id": 2491883722,
      "lat": 59.3501168,
      "lon": 28.1194797
    },
    {
      "type": "node",
      "id": 432842425,
      "lat": 59.3501137,
      "lon": 28.1246873
    },
    {
      "type": "node",
      "id": 432842426,
      "lat": 59.3499349,
      "lon": 28.1219064
    },
    {
      "type": "node",
      "id": 2266267754,
      "lat": 59.3499611,
      "lon": 28.1230131
    },
    {
      "type": "node",
      "id": 2266267757,
      "lat": 59.3501621,
      "lon": 28.1262103
    },
    {
      "type": "node",
      "id": 2266267758,
      "lat": 59.3500594,
      "lon": 28.1239404
    },
    {
      "type": "node",
      "id": 432842424,
      "lat": 59.3500994,
      "lon": 28.1318152
    },
    {
      "type": "node",
      "id": 2267344872,
      "lat": 59.3501815,
      "lon": 28.1339052
    },
    {
      "type": "node",
      "id": 2267344927,
      "lat": 59.3501248,
      "lon": 28.1283774
    },
    {
      "type": "node",
      "id": 9877811429,
      "lat": 59.3501476,
      "lon": 28.1334091
    },
    {
      "type": "node",
      "id": 9877811430,
      "lat": 59.3501129,
      "lon": 28.1326164
    },
    {
      "type": "node",
      "id": 432842401,
      "lat": 59.3519937,
      "lon": 28.1398328
    },
    {
      "type": "node",
      "id": 432842403,
      "lat": 59.3509808,
      "lon": 28.1397612
    },
    {
      "type": "node",
      "id": 432842412,
      "lat": 59.350584,
      "lon": 28.1392508
    },
    {
      "type": "node",
      "id": 432842415,
      "lat": 59.3503046,
      "lon": 28.1359071
    },
    {
      "type": "node",
      "id": 2267344249,
      "lat": 59.3508046,
      "lon": 28.1396519
    },
    {
      "type": "node",
      "id": 2267344474,
      "lat": 59.3522446,
      "lon": 28.1398484
    },
    {
      "type": "node",
      "id": 4741275913,
      "lat": 59.3506723,
      "lon": 28.1394672
    },
    {
      "type": "node",
      "id": 4741275914,
      "lat": 59.3505006,
      "lon": 28.1389038
    },
    {
      "type": "node",
      "id": 9877811426,
      "lat": 59.3525463,
      "lon": 28.1398781
    },
    {
      "type": "node",
      "id": 10608379299,
      "lat": 59.352628,
      "lon": 28.1398861
    },
    {
      "type": "node",
      "id": 10608437223,
      "lat": 59.3526711,
      "lon": 28.1398903
    },
    {
      "type": "node",
      "id": 302663497,
      "lat": 59.3551603,
      "lon": 28.1401048
    },
    {
      "type": "node",
      "id": 302663498,
      "lat": 59.3557033,
      "lon": 28.1405183
    },
    {
      "type": "node",
      "id": 302663499,
      "lat": 59.356283,
      "lon": 28.1411252
    },
    {
      "type": "node",
      "id": 432842398,
      "lat": 59.3544777,
      "lon": 28.1400386
    },
    {
      "type": "node",
      "id": 481211106,
      "lat": 59.3535199,
      "lon": 28.1400108
    },
    {
      "type": "node",
      "id": 686703373,
      "lat": 59.3535513,
      "lon": 28.1400131
    },
    {
      "type": "node",
      "id": 686703374,
      "lat": 59.3554298,
      "lon": 28.1402382
    },
    {
      "type": "node",
      "id": 686703375,
      "lat": 59.3539844,
      "lon": 28.1400287
    },
    {
      "type": "node",
      "id": 2267094301,
      "lat": 59.3540228,
      "lon": 28.1400325
    },
    {
      "type": "node",
      "id": 10608404800,
      "lat": 59.3535212,
      "lon": 28.1398775
    },
    {
      "type": "node",
      "id": 10608404804,
      "lat": 59.3548846,
      "lon": 28.1399005
    },
    {
      "type": "node",
      "id": 10608437206,
      "lat": 59.3547562,
      "lon": 28.1400645
    },
    {
      "type": "node",
      "id": 10608437208,
      "lat": 59.3542647,
      "lon": 28.1398933
    },
    {
      "type": "node",
      "id": 10608437210,
      "lat": 59.3552973,
      "lon": 28.1401557
    },
    {
      "type": "node",
      "id": 10608437212,
      "lat": 59.3529994,
      "lon": 28.1399805
    },
    {
      "type": "node",
      "id": 10608437213,
      "lat": 59.3555266,
      "lon": 28.140311
    },
    {
      "type": "node",
      "id": 10608437214,
      "lat": 59.3553922,
      "lon": 28.1401486
    },
    {
      "type": "node",
      "id": 10608437215,
      "lat": 59.3552358,
      "lon": 28.1400258
    },
    {
      "type": "node",
      "id": 10608437216,
      "lat": 59.35507,
      "lon": 28.1399461
    },
    {
      "type": "node",
      "id": 10608437217,
      "lat": 59.3549199,
      "lon": 28.1399052
    },
    {
      "type": "node",
      "id": 10608437218,
      "lat": 59.3547666,
      "lon": 28.1398847
    },
    {
      "type": "node",
      "id": 10608437219,
      "lat": 59.3544614,
      "lon": 28.1398901
    },
    {
      "type": "node",
      "id": 10608437220,
      "lat": 59.3539888,
      "lon": 28.139897
    },
    {
      "type": "node",
      "id": 10608437221,
      "lat": 59.3535508,
      "lon": 28.1398786
    },
    {
      "type": "node",
      "id": 10608437222,
      "lat": 59.3530024,
      "lon": 28.1398581
    },
    {
      "type": "node",
      "id": 481211148,
      "lat": 59.3617412,
      "lon": 28.1469588
    },
    {
      "type": "node",
      "id": 6823804034,
      "lat": 59.3593136,
      "lon": 28.1443641
    },
    {
      "type": "node",
      "id": 2364154329,
      "lat": 59.3650868,
      "lon": 28.1506111
    },
    {
      "type": "node",
      "id": 11155184,
      "lat": 59.3648042,
      "lon": 28.1883085
    },
    {
      "type": "node",
      "id": 441862010,
      "lat": 59.3645544,
      "lon": 28.1926595
    },
    {
      "type": "node",
      "id": 2287348519,
      "lat": 59.3646791,
      "lon": 28.1905381
    },
    {
      "type": "node",
      "id": 2291664794,
      "lat": 59.3647215,
      "lon": 28.1897828
    },
    {
      "type": "node",
      "id": 3681376371,
      "lat": 59.3647909,
      "lon": 28.1885442
    },
    {
      "type": "node",
      "id": 8074491638,
      "lat": 59.3645592,
      "lon": 28.1925768
    },
    {
      "type": "node",
      "id": 9877699643,
      "lat": 59.3644981,
      "lon": 28.1935464
    },
    {
      "type": "node",
      "id": 319135221,
      "lat": 59.3555933,
      "lon": 28.2059268
    },
    {
      "type": "node",
      "id": 321261027,
      "lat": 59.3558213,
      "lon": 28.2061055
    },
    {
      "type": "node",
      "id": 11155175,
      "lat": 59.3643525,
      "lon": 28.195806
    },
    {
      "type": "node",
      "id": 11155224,
      "lat": 59.3641278,
      "lon": 28.1997198
    },
    {
      "type": "node",
      "id": 481227522,
      "lat": 59.3641891,
      "lon": 28.1984886
    },
    {
      "type": "node",
      "id": 1094081902,
      "lat": 59.3641917,
      "lon": 28.2
    },
    {
      "type": "node",
      "id": 2370788599,
      "lat": 59.3643058,
      "lon": 28.1965622
    },
    {
      "type": "node",
      "id": 2379019471,
      "lat": 59.3642441,
      "lon": 28.1975399
    },
    {
      "type": "node",
      "id": 3681366815,
      "lat": 59.3643677,
      "lon": 28.1955786
    },
    {
      "type": "node",
      "id": 3681366819,
      "lat": 59.3643377,
      "lon": 28.1960511
    },
    {
      "type": "node",
      "id": 9877699642,
      "lat": 59.3642622,
      "lon": 28.1972526
    },
    {
      "type": "node",
      "id": 11155226,
      "lat": 59.3643151,
      "lon": 28.2002583
    },
    {
      "type": "node",
      "id": 11155230,
      "lat": 59.3656928,
      "lon": 28.2025757
    },
    {
      "type": "node",
      "id": 1089229832,
      "lat": 59.365536,
      "lon": 28.2023613
    },
    {
      "type": "node",
      "id": 1094081965,
      "lat": 59.3653279,
      "lon": 28.2020029
    },
    {
      "type": "node",
      "id": 2378008700,
      "lat": 59.3647095,
      "lon": 28.200903
    },
    {
      "type": "node",
      "id": 8077054637,
      "lat": 59.3646402,
      "lon": 28.2007898
    },
    {
      "type": "node",
      "id": 9877699639,
      "lat": 59.3652488,
      "lon": 28.2018623
    },
    {
      "type": "node",
      "id": 319135222,
      "lat": 59.3568405,
      "lon": 28.2068563
    },
    {
      "type": "node",
      "id": 2066029436,
      "lat": 59.3578466,
      "lon": 28.2076564
    },
    {
      "type": "node",
      "id": 2066029446,
      "lat": 59.3586067,
      "lon": 28.208249
    },
    {
      "type": "node",
      "id": 2066029455,
      "lat": 59.3589598,
      "lon": 28.208509
    },
    {
      "type": "node",
      "id": 2066029460,
      "lat": 59.3591612,
      "lon": 28.2086416
    },
    {
      "type": "node",
      "id": 7325141381,
      "lat": 59.3582354,
      "lon": 28.2079595
    },
    {
      "type": "node",
      "id": 319135223,
      "lat": 59.3595246,
      "lon": 28.2088135
    },
    {
      "type": "node",
      "id": 321252190,
      "lat": 59.3593955,
      "lon": 28.2087814
    },
    {
      "type": "node",
      "id": 432842371,
      "lat": 59.3726889,
      "lon": 28.1030305
    },
    {
      "type": "node",
      "id": 2359008323,
      "lat": 59.3735808,
      "lon": 28.1066385
    },
    {
      "type": "node",
      "id": 2359008337,
      "lat": 59.3736829,
      "lon": 28.1069942
    },
    {
      "type": "node",
      "id": 2359008354,
      "lat": 59.3733748,
      "lon": 28.1058663
    },
    {
      "type": "node",
      "id": 9879492933,
      "lat": 59.3733497,
      "lon": 28.1057624
    },
    {
      "type": "node",
      "id": 9879492934,
      "lat": 59.3731832,
      "lon": 28.105074
    },
    {
      "type": "node",
      "id": 432842373,
      "lat": 59.3751709,
      "lon": 28.1126152
    },
    {
      "type": "node",
      "id": 2552944156,
      "lat": 59.3747293,
      "lon": 28.1108856
    },
    {
      "type": "node",
      "id": 432842375,
      "lat": 59.3767035,
      "lon": 28.1181061
    },
    {
      "type": "node",
      "id": 432842379,
      "lat": 59.3774574,
      "lon": 28.1204364
    },
    {
      "type": "node",
      "id": 2359008249,
      "lat": 59.3778063,
      "lon": 28.1213377
    },
    {
      "type": "node",
      "id": 2359008269,
      "lat": 59.37637,
      "lon": 28.1169113
    },
    {
      "type": "node",
      "id": 9879492935,
      "lat": 59.3772842,
      "lon": 28.1199011
    },
    {
      "type": "node",
      "id": 9879492936,
      "lat": 59.3775212,
      "lon": 28.1206012
    },
    {
      "type": "node",
      "id": 1258212012,
      "lat": 59.3671506,
      "lon": 28.1527572
    },
    {
      "type": "node",
      "id": 9879864687,
      "lat": 59.3679389,
      "lon": 28.1536127
    },
    {
      "type": "node",
      "id": 302663887,
      "lat": 59.3730574,
      "lon": 28.1539104
    },
    {
      "type": "node",
      "id": 302663889,
      "lat": 59.373227,
      "lon": 28.1541255
    },
    {
      "type": "node",
      "id": 302663890,
      "lat": 59.3732573,
      "lon": 28.1542284
    },
    {
      "type": "node",
      "id": 7851353106,
      "lat": 59.3731715,
      "lon": 28.1540266
    },
    {
      "type": "node",
      "id": 432842381,
      "lat": 59.3808799,
      "lon": 28.1282454
    },
    {
      "type": "node",
      "id": 432842383,
      "lat": 59.3829169,
      "lon": 28.1327971
    },
    {
      "type": "node",
      "id": 432842385,
      "lat": 59.3833334,
      "lon": 28.1334655
    },
    {
      "type": "node",
      "id": 432842387,
      "lat": 59.3837461,
      "lon": 28.1336826
    },
    {
      "type": "node",
      "id": 432842389,
      "lat": 59.3843571,
      "lon": 28.1334709
    },
    {
      "type": "node",
      "id": 2359008230,
      "lat": 59.3835176,
      "lon": 28.1336002
    },
    {
      "type": "node",
      "id": 2359008238,
      "lat": 59.3854198,
      "lon": 28.1324231
    },
    {
      "type": "node",
      "id": 7640723986,
      "lat": 59.384177,
      "lon": 28.1335884
    },
    {
      "type": "node",
      "id": 9879492937,
      "lat": 59.3815046,
      "lon": 28.129634
    },
    {
      "type": "node",
      "id": 9879492938,
      "lat": 59.3817742,
      "lon": 28.1302397
    },
    {
      "type": "node",
      "id": 11763401813,
      "lat": 59.3830478,
      "lon": 28.133049
    },
    {
      "type": "node",
      "id": 11763401814,
      "lat": 59.3831596,
      "lon": 28.1332409
    },
    {
      "type": "node",
      "id": 11763401815,
      "lat": 59.3832608,
      "lon": 28.1333926
    },
    {
      "type": "node",
      "id": 11763401816,
      "lat": 59.3834359,
      "lon": 28.1335563
    },
    {
      "type": "node",
      "id": 11763401817,
      "lat": 59.3836469,
      "lon": 28.1336602
    },
    {
      "type": "node",
      "id": 11763401818,
      "lat": 59.3838577,
      "lon": 28.1336853
    },
    {
      "type": "node",
      "id": 11763401819,
      "lat": 59.3840997,
      "lon": 28.1336351
    },
    {
      "type": "node",
      "id": 11763401820,
      "lat": 59.3840137,
      "lon": 28.1336691
    },
    {
      "type": "node",
      "id": 11763401821,
      "lat": 59.3839233,
      "lon": 28.1336823
    },
    {
      "type": "node",
      "id": 8138325,
      "lat": 59.3888576,
      "lon": 28.1298315
    },
    {
      "type": "node",
      "id": 432842391,
      "lat": 59.387747,
      "lon": 28.1301851
    },
    {
      "type": "node",
      "id": 1825145907,
      "lat": 59.387528,
      "lon": 28.130328
    },
    {
      "type": "node",
      "id": 1825145910,
      "lat": 59.3880067,
      "lon": 28.1300787
    },
    {
      "type": "node",
      "id": 6869586608,
      "lat": 59.3883934,
      "lon": 28.1299814
    },
    {
      "type": "node",
      "id": 6869586609,
      "lat": 59.3886374,
      "lon": 28.1299783
    },
    {
      "type": "node",
      "id": 6869586610,
      "lat": 59.3886951,
      "lon": 28.1300136
    },
    {
      "type": "node",
      "id": 6869586611,
      "lat": 59.3887649,
      "lon": 28.1301104
    },
    {
      "type": "node",
      "id": 6869586612,
      "lat": 59.3888112,
      "lon": 28.1302733
    },
    {
      "type": "node",
      "id": 6869586616,
      "lat": 59.3887302,
      "lon": 28.129688
    },
    {
      "type": "node",
      "id": 6869586617,
      "lat": 59.3886816,
      "lon": 28.1297995
    },
    {
      "type": "node",
      "id": 6869586618,
      "lat": 59.3886239,
      "lon": 28.1298561
    },
    {
      "type": "node",
      "id": 6886228751,
      "lat": 59.3876252,
      "lon": 28.1302549
    },
    {
      "type": "node",
      "id": 6886228752,
      "lat": 59.3873261,
      "lon": 28.1305059
    },
    {
      "type": "node",
      "id": 6886228753,
      "lat": 59.3870344,
      "lon": 28.1307871
    },
    {
      "type": "node",
      "id": 6886228754,
      "lat": 59.3867806,
      "lon": 28.1310395
    },
    {
      "type": "node",
      "id": 6886228755,
      "lat": 59.3863575,
      "lon": 28.1314653
    },
    {
      "type": "node",
      "id": 6886228756,
      "lat": 59.3858976,
      "lon": 28.1319385
    },
    {
      "type": "node",
      "id": 6886228757,
      "lat": 59.3855989,
      "lon": 28.1322371
    },
    {
      "type": "node",
      "id": 10608522600,
      "lat": 59.3887336,
      "lon": 28.1300449
    },
    {
      "type": "node",
      "id": 10608522601,
      "lat": 59.3886009,
      "lon": 28.1299788
    },
    {
      "type": "node",
      "id": 10608522602,
      "lat": 59.3885918,
      "lon": 28.1298736
    },
    {
      "type": "node",
      "id": 10608522631,
      "lat": 59.3887851,
      "lon": 28.1301695
    },
    {
      "type": "node",
      "id": 10608522657,
      "lat": 59.3887808,
      "lon": 28.1299266
    },
    {
      "type": "node",
      "id": 10608522658,
      "lat": 59.3887482,
      "lon": 28.1299551
    },
    {
      "type": "node",
      "id": 10608522659,
      "lat": 59.3887734,
      "lon": 28.1298203
    },
    {
      "type": "node",
      "id": 10608522661,
      "lat": 59.3887448,
      "lon": 28.1295892
    },
    {
      "type": "node",
      "id": 10608522670,
      "lat": 59.3887469,
      "lon": 28.1294391
    },
    {
      "type": "node",
      "id": 302663500,
      "lat": 59.3695474,
      "lon": 28.1552889
    },
    {
      "type": "node",
      "id": 302663501,
      "lat": 59.3698656,
      "lon": 28.1554188
    },
    {
      "type": "node",
      "id": 302663502,
      "lat": 59.3701885,
      "lon": 28.1554098
    },
    {
      "type": "node",
      "id": 302669081,
      "lat": 59.3692093,
      "lon": 28.1550065
    },
    {
      "type": "node",
      "id": 392708174,
      "lat": 59.3716868,
      "lon": 28.1551419
    },
    {
      "type": "node",
      "id": 1606755885,
      "lat": 59.3721815,
      "lon": 28.1550503
    },
    {
      "type": "node",
      "id": 7851353118,
      "lat": 59.3697055,
      "lon": 28.1553705
    },
    {
      "type": "node",
      "id": 7851353119,
      "lat": 59.3700241,
      "lon": 28.155426
    },
    {
      "type": "node",
      "id": 9879864688,
      "lat": 59.3685524,
      "lon": 28.1542888
    },
    {
      "type": "node",
      "id": 9937743607,
      "lat": 59.368989,
      "lon": 28.1547658
    },
    {
      "type": "node",
      "id": 9937743608,
      "lat": 59.3690498,
      "lon": 28.1548322
    },
    {
      "type": "node",
      "id": 9937743609,
      "lat": 59.3691015,
      "lon": 28.1550448
    },
    {
      "type": "node",
      "id": 9937743610,
      "lat": 59.3690998,
      "lon": 28.1552592
    },
    {
      "type": "node",
      "id": 9937743611,
      "lat": 59.3690854,
      "lon": 28.1553658
    },
    {
      "type": "node",
      "id": 9937743612,
      "lat": 59.3691989,
      "lon": 28.1552856
    },
    {
      "type": "node",
      "id": 9937743613,
      "lat": 59.3693183,
      "lon": 28.1552361
    },
    {
      "type": "node",
      "id": 9937743614,
      "lat": 59.3694886,
      "lon": 28.1552432
    },
    {
      "type": "node",
      "id": 302663667,
      "lat": 59.3731973,
      "lon": 28.1557569
    },
    {
      "type": "node",
      "id": 302663727,
      "lat": 59.374243,
      "lon": 28.1546364
    },
    {
      "type": "node",
      "id": 302663891,
      "lat": 59.3732728,
      "lon": 28.1545223
    },
    {
      "type": "node",
      "id": 302663892,
      "lat": 59.3730807,
      "lon": 28.1548693
    },
    {
      "type": "node",
      "id": 302663893,
      "lat": 59.3732081,
      "lon": 28.1549709
    },
    {
      "type": "node",
      "id": 302663894,
      "lat": 59.3733184,
      "lon": 28.1553678
    },
    {
      "type": "node",
      "id": 302663895,
      "lat": 59.3732761,
      "lon": 28.1556011
    },
    {
      "type": "node",
      "id": 848308633,
      "lat": 59.3733138,
      "lon": 28.1552443
    },
    {
      "type": "node",
      "id": 7851353101,
      "lat": 59.3732593,
      "lon": 28.1550467
    },
    {
      "type": "node",
      "id": 7851353107,
      "lat": 59.3732498,
      "lon": 28.1546447
    },
    {
      "type": "node",
      "id": 8311239671,
      "lat": 59.3732915,
      "lon": 28.1551358
    },
    {
      "type": "node",
      "id": 8311239672,
      "lat": 59.3733081,
      "lon": 28.1554854
    },
    {
      "type": "node",
      "id": 8311239675,
      "lat": 59.3731508,
      "lon": 28.1549172
    },
    {
      "type": "node",
      "id": 8311239679,
      "lat": 59.3732778,
      "lon": 28.154358
    },
    {
      "type": "node",
      "id": 8311239680,
      "lat": 59.3732055,
      "lon": 28.1547386
    },
    {
      "type": "node",
      "id": 8311239681,
      "lat": 59.3731539,
      "lon": 28.1548078
    },
    {
      "type": "node",
      "id": 302663508,
      "lat": 59.3728484,
      "lon": 28.1650709
    },
    {
      "type": "node",
      "id": 417980745,
      "lat": 59.3774268,
      "lon": 28.1643087
    },
    {
      "type": "node",
      "id": 417980749,
      "lat": 59.3775115,
      "lon": 28.1642905
    },
    {
      "type": "node",
      "id": 417980755,
      "lat": 59.3773358,
      "lon": 28.1643282
    },
    {
      "type": "node",
      "id": 472966134,
      "lat": 59.372945,
      "lon": 28.1650643
    },
    {
      "type": "node",
      "id": 874195542,
      "lat": 59.373793,
      "lon": 28.1649267
    },
    {
      "type": "node",
      "id": 874226259,
      "lat": 59.3757057,
      "lon": 28.1646561
    },
    {
      "type": "node",
      "id": 5324550983,
      "lat": 59.3757853,
      "lon": 28.1646401
    },
    {
      "type": "node",
      "id": 5440050474,
      "lat": 59.3739482,
      "lon": 28.1649081
    },
    {
      "type": "node",
      "id": 5440050475,
      "lat": 59.3758168,
      "lon": 28.1646338
    },
    {
      "type": "node",
      "id": 6912943434,
      "lat": 59.3730089,
      "lon": 28.1650559
    },
    {
      "type": "node",
      "id": 8077012663,
      "lat": 59.3733951,
      "lon": 28.1649935
    },
    {
      "type": "node",
      "id": 8077044595,
      "lat": 59.3760042,
      "lon": 28.1645961
    },
    {
      "type": "node",
      "id": 8077044597,
      "lat": 59.3761414,
      "lon": 28.1645685
    },
    {
      "type": "node",
      "id": 8077057538,
      "lat": 59.3787855,
      "lon": 28.1640858
    },
    {
      "type": "node",
      "id": 8364485209,
      "lat": 59.3769877,
      "lon": 28.1643982
    },
    {
      "type": "node",
      "id": 8364489322,
      "lat": 59.3782168,
      "lon": 28.1641879
    },
    {
      "type": "node",
      "id": 8364489596,
      "lat": 59.3771078,
      "lon": 28.1643741
    },
    {
      "type": "node",
      "id": 9877758205,
      "lat": 59.374416,
      "lon": 28.164841
    },
    {
      "type": "node",
      "id": 9877758206,
      "lat": 59.3753896,
      "lon": 28.1647014
    },
    {
      "type": "node",
      "id": 9877758207,
      "lat": 59.3788021,
      "lon": 28.1640829
    },
    {
      "type": "node",
      "id": 11515837184,
      "lat": 59.3748947,
      "lon": 28.1647724
    },
    {
      "type": "node",
      "id": 11515837190,
      "lat": 59.374221,
      "lon": 28.164869
    },
    {
      "type": "node",
      "id": 11515837194,
      "lat": 59.3738401,
      "lon": 28.1649211
    },
    {
      "type": "node",
      "id": 302668528,
      "lat": 59.3728703,
      "lon": 28.1729266
    },
    {
      "type": "node",
      "id": 417980853,
      "lat": 59.3729801,
      "lon": 28.1730139
    },
    {
      "type": "node",
      "id": 874195316,
      "lat": 59.3738856,
      "lon": 28.1737458
    },
    {
      "type": "node",
      "id": 2319235893,
      "lat": 59.3740598,
      "lon": 28.1738995
    },
    {
      "type": "node",
      "id": 302667617,
      "lat": 59.3779305,
      "lon": 28.1773346
    },
    {
      "type": "node",
      "id": 417980893,
      "lat": 59.377668,
      "lon": 28.1771141
    },
    {
      "type": "node",
      "id": 417980896,
      "lat": 59.3780786,
      "lon": 28.1774571
    },
    {
      "type": "node",
      "id": 441855206,
      "lat": 59.3743313,
      "lon": 28.1741881
    },
    {
      "type": "node",
      "id": 874195375,
      "lat": 59.3771137,
      "lon": 28.1766509
    },
    {
      "type": "node",
      "id": 874226018,
      "lat": 59.3758952,
      "lon": 28.1755728
    },
    {
      "type": "node",
      "id": 2319235879,
      "lat": 59.3756477,
      "lon": 28.1753435
    },
    {
      "type": "node",
      "id": 2552432078,
      "lat": 59.3757663,
      "lon": 28.1754552
    },
    {
      "type": "node",
      "id": 2552432083,
      "lat": 59.3749105,
      "lon": 28.1746768
    },
    {
      "type": "node",
      "id": 5306843113,
      "lat": 59.378404,
      "lon": 28.1777523
    },
    {
      "type": "node",
      "id": 9877758199,
      "lat": 59.375435,
      "lon": 28.1751538
    },
    {
      "type": "node",
      "id": 9877758200,
      "lat": 59.3750133,
      "lon": 28.174771
    },
    {
      "type": "node",
      "id": 9877811460,
      "lat": 59.3782858,
      "lon": 28.1776451
    },
    {
      "type": "node",
      "id": 9877811461,
      "lat": 59.3784964,
      "lon": 28.1778407
    },
    {
      "type": "node",
      "id": 11155983,
      "lat": 59.3825964,
      "lon": 28.1661781
    },
    {
      "type": "node",
      "id": 302664051,
      "lat": 59.3791306,
      "lon": 28.1640252
    },
    {
      "type": "node",
      "id": 429584741,
      "lat": 59.3795116,
      "lon": 28.1640122
    },
    {
      "type": "node",
      "id": 919688431,
      "lat": 59.3816395,
      "lon": 28.1653565
    },
    {
      "type": "node",
      "id": 919688438,
      "lat": 59.3812184,
      "lon": 28.1649471
    },
    {
      "type": "node",
      "id": 919688440,
      "lat": 59.3803239,
      "lon": 28.1642849
    },
    {
      "type": "node",
      "id": 1606755942,
      "lat": 59.3819781,
      "lon": 28.1656399
    },
    {
      "type": "node",
      "id": 2479016727,
      "lat": 59.3810854,
      "lon": 28.1648355
    },
    {
      "type": "node",
      "id": 2486501989,
      "lat": 59.3824933,
      "lon": 28.1660924
    },
    {
      "type": "node",
      "id": 2558783450,
      "lat": 59.3826475,
      "lon": 28.1662232
    },
    {
      "type": "node",
      "id": 5440050480,
      "lat": 59.3793448,
      "lon": 28.1640134
    },
    {
      "type": "node",
      "id": 5440050482,
      "lat": 59.3810508,
      "lon": 28.1648065
    },
    {
      "type": "node",
      "id": 6937603434,
      "lat": 59.3813903,
      "lon": 28.1651142
    },
    {
      "type": "node",
      "id": 9877758208,
      "lat": 59.379837,
      "lon": 28.1640723
    },
    {
      "type": "node",
      "id": 11763351654,
      "lat": 59.3797836,
      "lon": 28.164057
    },
    {
      "type": "node",
      "id": 11763351655,
      "lat": 59.380211,
      "lon": 28.1642102
    },
    {
      "type": "node",
      "id": 11763351681,
      "lat": 59.3804468,
      "lon": 28.1643483
    },
    {
      "type": "node",
      "id": 11763351682,
      "lat": 59.3806098,
      "lon": 28.1644503
    },
    {
      "type": "node",
      "id": 11763351683,
      "lat": 59.3807553,
      "lon": 28.1645586
    },
    {
      "type": "node",
      "id": 11155721,
      "lat": 59.3825619,
      "lon": 28.1800431
    },
    {
      "type": "node",
      "id": 302667593,
      "lat": 59.3793534,
      "lon": 28.179197
    },
    {
      "type": "node",
      "id": 417980777,
      "lat": 59.3789379,
      "lon": 28.1782627
    },
    {
      "type": "node",
      "id": 417980785,
      "lat": 59.3789712,
      "lon": 28.1793726
    },
    {
      "type": "node",
      "id": 417980788,
      "lat": 59.3790484,
      "lon": 28.1795859
    },
    {
      "type": "node",
      "id": 417980793,
      "lat": 59.379163,
      "lon": 28.1788875
    },
    {
      "type": "node",
      "id": 417980798,
      "lat": 59.3791381,
      "lon": 28.1783841
    },
    {
      "type": "node",
      "id": 417980802,
      "lat": 59.3790987,
      "lon": 28.178323
    },
    {
      "type": "node",
      "id": 417980885,
      "lat": 59.3789716,
      "lon": 28.179249
    },
    {
      "type": "node",
      "id": 919683369,
      "lat": 59.3791079,
      "lon": 28.1795608
    },
    {
      "type": "node",
      "id": 1089229822,
      "lat": 59.3791596,
      "lon": 28.1784558
    },
    {
      "type": "node",
      "id": 1376650148,
      "lat": 59.3789733,
      "lon": 28.1784566
    },
    {
      "type": "node",
      "id": 1376650151,
      "lat": 59.3791682,
      "lon": 28.1786224
    },
    {
      "type": "node",
      "id": 1376650152,
      "lat": 59.3791534,
      "lon": 28.17929
    },
    {
      "type": "node",
      "id": 2382408686,
      "lat": 59.3791564,
      "lon": 28.1791756
    },
    {
      "type": "node",
      "id": 2382408797,
      "lat": 59.3792639,
      "lon": 28.1790703
    },
    {
      "type": "node",
      "id": 2387229670,
      "lat": 59.3826441,
      "lon": 28.1803396
    },
    {
      "type": "node",
      "id": 2552432076,
      "lat": 59.3789884,
      "lon": 28.1782766
    },
    {
      "type": "node",
      "id": 3679866377,
      "lat": 59.3790504,
      "lon": 28.1782942
    },
    {
      "type": "node",
      "id": 8308409078,
      "lat": 59.3789571,
      "lon": 28.1783202
    },
    {
      "type": "node",
      "id": 8308409079,
      "lat": 59.3789714,
      "lon": 28.1783869
    },
    {
      "type": "node",
      "id": 8308409080,
      "lat": 59.3789828,
      "lon": 28.1794322
    },
    {
      "type": "node",
      "id": 8308409081,
      "lat": 59.3790009,
      "lon": 28.1794908
    },
    {
      "type": "node",
      "id": 8308409082,
      "lat": 59.3790227,
      "lon": 28.1795406
    },
    {
      "type": "node",
      "id": 8308409083,
      "lat": 59.3791686,
      "lon": 28.1785376
    },
    {
      "type": "node",
      "id": 8308409085,
      "lat": 59.3791272,
      "lon": 28.1794998
    },
    {
      "type": "node",
      "id": 8308409086,
      "lat": 59.3791445,
      "lon": 28.1794237
    },
    {
      "type": "node",
      "id": 8136070,
      "lat": 59.3764263,
      "lon": 28.1930546
    },
    {
      "type": "node",
      "id": 2280045252,
      "lat": 59.3761182,
      "lon": 28.1932603
    },
    {
      "type": "node",
      "id": 6733405312,
      "lat": 59.3765891,
      "lon": 28.192927
    },
    {
      "type": "node",
      "id": 8308409060,
      "lat": 59.3764487,
      "lon": 28.1927893
    },
    {
      "type": "node",
      "id": 8308409064,
      "lat": 59.3762327,
      "lon": 28.1931674
    },
    {
      "type": "node",
      "id": 8308409065,
      "lat": 59.3763525,
      "lon": 28.193116
    },
    {
      "type": "node",
      "id": 8308409066,
      "lat": 59.3763169,
      "lon": 28.1931376
    },
    {
      "type": "node",
      "id": 8308409067,
      "lat": 59.3763191,
      "lon": 28.1930663
    },
    {
      "type": "node",
      "id": 8308409068,
      "lat": 59.3763582,
      "lon": 28.1930239
    },
    {
      "type": "node",
      "id": 8308409069,
      "lat": 59.3764243,
      "lon": 28.1929012
    },
    {
      "type": "node",
      "id": 8308409070,
      "lat": 59.3763945,
      "lon": 28.1929707
    },
    {
      "type": "node",
      "id": 9877699632,
      "lat": 59.3758145,
      "lon": 28.1935284
    },
    {
      "type": "node",
      "id": 10698045108,
      "lat": 59.3761694,
      "lon": 28.1932187
    },
    {
      "type": "node",
      "id": 8136117,
      "lat": 59.3718943,
      "lon": 28.1973621
    },
    {
      "type": "node",
      "id": 8136122,
      "lat": 59.3701665,
      "lon": 28.1969501
    },
    {
      "type": "node",
      "id": 230347361,
      "lat": 59.3717599,
      "lon": 28.1997004
    },
    {
      "type": "node",
      "id": 230347532,
      "lat": 59.3694774,
      "lon": 28.199327
    },
    {
      "type": "node",
      "id": 302664400,
      "lat": 59.3694914,
      "lon": 28.1992671
    },
    {
      "type": "node",
      "id": 392227185,
      "lat": 59.371858,
      "lon": 28.1977533
    },
    {
      "type": "node",
      "id": 392227186,
      "lat": 59.3701298,
      "lon": 28.1971957
    },
    {
      "type": "node",
      "id": 523147377,
      "lat": 59.3702865,
      "lon": 28.1970347
    },
    {
      "type": "node",
      "id": 523147388,
      "lat": 59.3718171,
      "lon": 28.1973482
    },
    {
      "type": "node",
      "id": 529554102,
      "lat": 59.3697557,
      "lon": 28.1981719
    },
    {
      "type": "node",
      "id": 529554103,
      "lat": 59.3699954,
      "lon": 28.197194
    },
    {
      "type": "node",
      "id": 530778157,
      "lat": 59.3718437,
      "lon": 28.1980362
    },
    {
      "type": "node",
      "id": 530778162,
      "lat": 59.3718552,
      "lon": 28.1978084
    },
    {
      "type": "node",
      "id": 633530725,
      "lat": 59.3717826,
      "lon": 28.1992502
    },
    {
      "type": "node",
      "id": 791914906,
      "lat": 59.3720172,
      "lon": 28.1973742
    },
    {
      "type": "node",
      "id": 899488316,
      "lat": 59.3698911,
      "lon": 28.1978105
    },
    {
      "type": "node",
      "id": 899488506,
      "lat": 59.3699206,
      "lon": 28.1974678
    },
    {
      "type": "node",
      "id": 899489101,
      "lat": 59.3699908,
      "lon": 28.1975693
    },
    {
      "type": "node",
      "id": 1094081585,
      "lat": 59.3700178,
      "lon": 28.1968275
    },
    {
      "type": "node",
      "id": 2301886881,
      "lat": 59.3704066,
      "lon": 28.1970577
    },
    {
      "type": "node",
      "id": 2379915453,
      "lat": 59.3718243,
      "lon": 28.198422
    },
    {
      "type": "node",
      "id": 9877699634,
      "lat": 59.3721746,
      "lon": 28.1972929
    },
    {
      "type": "node",
      "id": 9877699635,
      "lat": 59.3721877,
      "lon": 28.1972861
    },
    {
      "type": "node",
      "id": 9877699636,
      "lat": 59.369616,
      "lon": 28.1987507
    },
    {
      "type": "node",
      "id": 9883933163,
      "lat": 59.3701316,
      "lon": 28.1968552
    },
    {
      "type": "node",
      "id": 9883933164,
      "lat": 59.3701057,
      "lon": 28.1968251
    },
    {
      "type": "node",
      "id": 9883933165,
      "lat": 59.3701524,
      "lon": 28.1968979
    },
    {
      "type": "node",
      "id": 9883933166,
      "lat": 59.3699865,
      "lon": 28.1968694
    },
    {
      "type": "node",
      "id": 9883933167,
      "lat": 59.3699643,
      "lon": 28.1969298
    },
    {
      "type": "node",
      "id": 9883933168,
      "lat": 59.3699538,
      "lon": 28.1970013
    },
    {
      "type": "node",
      "id": 9883933169,
      "lat": 59.3699564,
      "lon": 28.1970755
    },
    {
      "type": "node",
      "id": 9883933170,
      "lat": 59.3699708,
      "lon": 28.1971411
    },
    {
      "type": "node",
      "id": 9883933171,
      "lat": 59.3700269,
      "lon": 28.1972278
    },
    {
      "type": "node",
      "id": 9883933172,
      "lat": 59.3700624,
      "lon": 28.1972399
    },
    {
      "type": "node",
      "id": 9883933173,
      "lat": 59.3700767,
      "lon": 28.1968099
    },
    {
      "type": "node",
      "id": 9883933174,
      "lat": 59.3700466,
      "lon": 28.1968107
    },
    {
      "type": "node",
      "id": 9883933176,
      "lat": 59.3701538,
      "lon": 28.1971464
    },
    {
      "type": "node",
      "id": 9883933177,
      "lat": 59.3701687,
      "lon": 28.1970847
    },
    {
      "type": "node",
      "id": 9883933178,
      "lat": 59.3698341,
      "lon": 28.197745
    },
    {
      "type": "node",
      "id": 9883933179,
      "lat": 59.3702113,
      "lon": 28.1970948
    },
    {
      "type": "node",
      "id": 9883958978,
      "lat": 59.3701731,
      "lon": 28.1970171
    },
    {
      "type": "node",
      "id": 9883958979,
      "lat": 59.370098,
      "lon": 28.1972288
    },
    {
      "type": "node",
      "id": 9883959009,
      "lat": 59.369309,
      "lon": 28.2000141
    },
    {
      "type": "node",
      "id": 9884004934,
      "lat": 59.3695262,
      "lon": 28.1991228
    },
    {
      "type": "node",
      "id": 9884004936,
      "lat": 59.3694297,
      "lon": 28.1995218
    },
    {
      "type": "node",
      "id": 9884004940,
      "lat": 59.3693984,
      "lon": 28.1996495
    },
    {
      "type": "node",
      "id": 9884181917,
      "lat": 59.3718648,
      "lon": 28.1976257
    },
    {
      "type": "node",
      "id": 10611592,
      "lat": 59.370331,
      "lon": 28.203897
    },
    {
      "type": "node",
      "id": 10611598,
      "lat": 59.3676206,
      "lon": 28.2042987
    },
    {
      "type": "node",
      "id": 10611602,
      "lat": 59.3674614,
      "lon": 28.2041638
    },
    {
      "type": "node",
      "id": 230347343,
      "lat": 59.3711728,
      "lon": 28.2036585
    },
    {
      "type": "node",
      "id": 230347347,
      "lat": 59.3713384,
      "lon": 28.203623
    },
    {
      "type": "node",
      "id": 230347350,
      "lat": 59.3715071,
      "lon": 28.2034093
    },
    {
      "type": "node",
      "id": 230347353,
      "lat": 59.3715967,
      "lon": 28.202972
    },
    {
      "type": "node",
      "id": 230347357,
      "lat": 59.3716919,
      "lon": 28.2012165
    },
    {
      "type": "node",
      "id": 230347538,
      "lat": 59.3689923,
      "lon": 28.2013574
    },
    {
      "type": "node",
      "id": 230347544,
      "lat": 59.3689019,
      "lon": 28.2030147
    },
    {
      "type": "node",
      "id": 414911527,
      "lat": 59.3691189,
      "lon": 28.2008447
    },
    {
      "type": "node",
      "id": 461817419,
      "lat": 59.3664732,
      "lon": 28.2033336
    },
    {
      "type": "node",
      "id": 481227524,
      "lat": 59.3680237,
      "lon": 28.2043228
    },
    {
      "type": "node",
      "id": 481227525,
      "lat": 59.3683325,
      "lon": 28.204112
    },
    {
      "type": "node",
      "id": 481234631,
      "lat": 59.3697455,
      "lon": 28.2038091
    },
    {
      "type": "node",
      "id": 560519227,
      "lat": 59.3701246,
      "lon": 28.203865
    },
    {
      "type": "node",
      "id": 899488247,
      "lat": 59.370732,
      "lon": 28.2037609
    },
    {
      "type": "node",
      "id": 899488555,
      "lat": 59.3714703,
      "lon": 28.2034858
    },
    {
      "type": "node",
      "id": 899488694,
      "lat": 59.3715682,
      "lon": 28.2031943
    },
    {
      "type": "node",
      "id": 899488783,
      "lat": 59.3709686,
      "lon": 28.2036651
    },
    {
      "type": "node",
      "id": 899488902,
      "lat": 59.3677617,
      "lon": 28.204358
    },
    {
      "type": "node",
      "id": 899488915,
      "lat": 59.3688343,
      "lon": 28.2033737
    },
    {
      "type": "node",
      "id": 899488955,
      "lat": 59.3712618,
      "lon": 28.2036581
    },
    {
      "type": "node",
      "id": 899489030,
      "lat": 59.3678735,
      "lon": 28.2043634
    },
    {
      "type": "node",
      "id": 919740370,
      "lat": 59.3692027,
      "lon": 28.2004734
    },
    {
      "type": "node",
      "id": 1094081816,
      "lat": 59.3659928,
      "lon": 28.2028851
    },
    {
      "type": "node",
      "id": 1198998417,
      "lat": 59.3715452,
      "lon": 28.2033002
    },
    {
      "type": "node",
      "id": 1376264097,
      "lat": 59.3714052,
      "lon": 28.2035695
    },
    {
      "type": "node",
      "id": 1437728269,
      "lat": 59.3658295,
      "lon": 28.2027167
    },
    {
      "type": "node",
      "id": 1606755864,
      "lat": 59.3685442,
      "lon": 28.2039418
    },
    {
      "type": "node",
      "id": 1606755871,
      "lat": 59.3687098,
      "lon": 28.2037762
    },
    {
      "type": "node",
      "id": 1606755874,
      "lat": 59.3687651,
      "lon": 28.203608
    },
    {
      "type": "node",
      "id": 1606755877,
      "lat": 59.3688338,
      "lon": 28.2036665
    },
    {
      "type": "node",
      "id": 1606755880,
      "lat": 59.3688715,
      "lon": 28.2032508
    },
    {
      "type": "node",
      "id": 1606755883,
      "lat": 59.3689293,
      "lon": 28.2035937
    },
    {
      "type": "node",
      "id": 2246152144,
      "lat": 59.3689902,
      "lon": 28.2013956
    },
    {
      "type": "node",
      "id": 2378862081,
      "lat": 59.3716523,
      "lon": 28.2019474
    },
    {
      "type": "node",
      "id": 3694734254,
      "lat": 59.3692757,
      "lon": 28.2001502
    },
    {
      "type": "node",
      "id": 5439930824,
      "lat": 59.3688946,
      "lon": 28.2030714
    },
    {
      "type": "node",
      "id": 5439930825,
      "lat": 59.3689939,
      "lon": 28.2036602
    },
    {
      "type": "node",
      "id": 7669707543,
      "lat": 59.3710476,
      "lon": 28.2036531
    },
    {
      "type": "node",
      "id": 8077336435,
      "lat": 59.3688046,
      "lon": 28.2034733
    },
    {
      "type": "node",
      "id": 9929031983,
      "lat": 59.3689213,
      "lon": 28.2034646
    },
    {
      "type": "node",
      "id": 9929031984,
      "lat": 59.3689313,
      "lon": 28.2035051
    },
    {
      "type": "node",
      "id": 9929031985,
      "lat": 59.3688151,
      "lon": 28.2036403
    },
    {
      "type": "node",
      "id": 9929031986,
      "lat": 59.368934,
      "lon": 28.2035497
    },
    {
      "type": "node",
      "id": 9929031987,
      "lat": 59.3689175,
      "lon": 28.2036322
    },
    {
      "type": "node",
      "id": 9929031988,
      "lat": 59.3689,
      "lon": 28.2036612
    },
    {
      "type": "node",
      "id": 9929031989,
      "lat": 59.3688786,
      "lon": 28.2036775
    },
    {
      "type": "node",
      "id": 9929031990,
      "lat": 59.3688558,
      "lon": 28.2036793
    },
    {
      "type": "node",
      "id": 9929031991,
      "lat": 59.3688017,
      "lon": 28.2036036
    },
    {
      "type": "node",
      "id": 9929031992,
      "lat": 59.3687952,
      "lon": 28.2035603
    },
    {
      "type": "node",
      "id": 9929031993,
      "lat": 59.3687962,
      "lon": 28.2035153
    },
    {
      "type": "node",
      "id": 9929031994,
      "lat": 59.3688195,
      "lon": 28.2034389
    },
    {
      "type": "node",
      "id": 9929031995,
      "lat": 59.3688393,
      "lon": 28.2034159
    },
    {
      "type": "node",
      "id": 9929031996,
      "lat": 59.3688618,
      "lon": 28.2034068
    },
    {
      "type": "node",
      "id": 9929031997,
      "lat": 59.3688846,
      "lon": 28.2034126
    },
    {
      "type": "node",
      "id": 9929031998,
      "lat": 59.3689052,
      "lon": 28.2034325
    },
    {
      "type": "node",
      "id": 421891649,
      "lat": 59.3742263,
      "lon": 28.1949606
    },
    {
      "type": "node",
      "id": 522986405,
      "lat": 59.3743837,
      "lon": 28.1948128
    },
    {
      "type": "node",
      "id": 525886348,
      "lat": 59.3723538,
      "lon": 28.1971303
    },
    {
      "type": "node",
      "id": 2280045239,
      "lat": 59.373786,
      "lon": 28.1954342
    },
    {
      "type": "node",
      "id": 2290887268,
      "lat": 59.3753771,
      "lon": 28.1939196
    },
    {
      "type": "node",
      "id": 2309134839,
      "lat": 59.3754297,
      "lon": 28.1938682
    },
    {
      "type": "node",
      "id": 4379445765,
      "lat": 59.373919,
      "lon": 28.1952836
    },
    {
      "type": "node",
      "id": 4629256695,
      "lat": 59.3725051,
      "lon": 28.1969494
    },
    {
      "type": "node",
      "id": 5043571836,
      "lat": 59.3723829,
      "lon": 28.1970975
    },
    {
      "type": "node",
      "id": 6912954343,
      "lat": 59.374371,
      "lon": 28.1948247
    },
    {
      "type": "node",
      "id": 9877699633,
      "lat": 59.374873,
      "lon": 28.1943729
    },
    {
      "type": "node",
      "id": 9884004943,
      "lat": 59.3737537,
      "lon": 28.1954717
    },
    {
      "type": "node",
      "id": 9884004944,
      "lat": 59.3737339,
      "lon": 28.1954303
    },
    {
      "type": "node",
      "id": 9884004945,
      "lat": 59.3737086,
      "lon": 28.1954028
    },
    {
      "type": "node",
      "id": 9884004946,
      "lat": 59.3736254,
      "lon": 28.1954234
    },
    {
      "type": "node",
      "id": 9884004947,
      "lat": 59.3736059,
      "lon": 28.1954587
    },
    {
      "type": "node",
      "id": 9884004948,
      "lat": 59.3735922,
      "lon": 28.1955034
    },
    {
      "type": "node",
      "id": 9884004949,
      "lat": 59.3735856,
      "lon": 28.195554
    },
    {
      "type": "node",
      "id": 9884004950,
      "lat": 59.3735953,
      "lon": 28.1956554
    },
    {
      "type": "node",
      "id": 9884004951,
      "lat": 59.3736116,
      "lon": 28.1956997
    },
    {
      "type": "node",
      "id": 9884004952,
      "lat": 59.3736338,
      "lon": 28.1957325
    },
    {
      "type": "node",
      "id": 9884004953,
      "lat": 59.3736879,
      "lon": 28.1957527
    },
    {
      "type": "node",
      "id": 9884004954,
      "lat": 59.3737179,
      "lon": 28.1957353
    },
    {
      "type": "node",
      "id": 9884004955,
      "lat": 59.3737433,
      "lon": 28.1956992
    },
    {
      "type": "node",
      "id": 9884004956,
      "lat": 59.373761,
      "lon": 28.1956485
    },
    {
      "type": "node",
      "id": 9884004957,
      "lat": 59.3737691,
      "lon": 28.1955891
    },
    {
      "type": "node",
      "id": 9884004958,
      "lat": 59.3736803,
      "lon": 28.1953921
    },
    {
      "type": "node",
      "id": 9884004959,
      "lat": 59.3736516,
      "lon": 28.1953992
    },
    {
      "type": "node",
      "id": 9884004960,
      "lat": 59.3735867,
      "lon": 28.1956061
    },
    {
      "type": "node",
      "id": 9884004961,
      "lat": 59.3736601,
      "lon": 28.1957507
    },
    {
      "type": "node",
      "id": 9884004962,
      "lat": 59.3737665,
      "lon": 28.1955278
    },
    {
      "type": "node",
      "id": 417982569,
      "lat": 59.3837428,
      "lon": 28.1843437
    },
    {
      "type": "node",
      "id": 417982571,
      "lat": 59.3843463,
      "lon": 28.1867319
    },
    {
      "type": "node",
      "id": 525805710,
      "lat": 59.3835041,
      "lon": 28.1835105
    },
    {
      "type": "node",
      "id": 525805712,
      "lat": 59.3832851,
      "lon": 28.1826792
    },
    {
      "type": "node",
      "id": 537990726,
      "lat": 59.3839958,
      "lon": 28.1853394
    },
    {
      "type": "node",
      "id": 1291832362,
      "lat": 59.3831451,
      "lon": 28.1821634
    },
    {
      "type": "node",
      "id": 2260813326,
      "lat": 59.3843923,
      "lon": 28.186923
    },
    {
      "type": "node",
      "id": 2431946273,
      "lat": 59.382831,
      "lon": 28.1810224
    },
    {
      "type": "node",
      "id": 2431946285,
      "lat": 59.3830425,
      "lon": 28.1817951
    },
    {
      "type": "node",
      "id": 5464804176,
      "lat": 59.3837091,
      "lon": 28.1842199
    },
    {
      "type": "node",
      "id": 6909459497,
      "lat": 59.3839493,
      "lon": 28.18515
    },
    {
      "type": "node",
      "id": 8355102267,
      "lat": 59.3841306,
      "lon": 28.1858748
    },
    {
      "type": "node",
      "id": 8355115782,
      "lat": 59.3832709,
      "lon": 28.182627
    },
    {
      "type": "node",
      "id": 9877703932,
      "lat": 59.3841647,
      "lon": 28.1860086
    },
    {
      "type": "node",
      "id": 9877703933,
      "lat": 59.3833659,
      "lon": 28.182986
    },
    {
      "type": "node",
      "id": 11155765,
      "lat": 59.385144,
      "lon": 28.1898598
    },
    {
      "type": "node",
      "id": 287244841,
      "lat": 59.3808298,
      "lon": 28.1910159
    },
    {
      "type": "node",
      "id": 302670769,
      "lat": 59.3808763,
      "lon": 28.1926299
    },
    {
      "type": "node",
      "id": 417982566,
      "lat": 59.3853649,
      "lon": 28.1907703
    },
    {
      "type": "node",
      "id": 537990729,
      "lat": 59.3845234,
      "lon": 28.187466
    },
    {
      "type": "node",
      "id": 1965458039,
      "lat": 59.3851756,
      "lon": 28.1900013
    },
    {
      "type": "node",
      "id": 1974002294,
      "lat": 59.3808331,
      "lon": 28.1913043
    },
    {
      "type": "node",
      "id": 2280045253,
      "lat": 59.3851031,
      "lon": 28.1897394
    },
    {
      "type": "node",
      "id": 8077316023,
      "lat": 59.3852651,
      "lon": 28.1903731
    },
    {
      "type": "node",
      "id": 9877758189,
      "lat": 59.38532,
      "lon": 28.190598
    },
    {
      "type": "node",
      "id": 9877758195,
      "lat": 59.3808917,
      "lon": 28.1931985
    },
    {
      "type": "node",
      "id": 9957890957,
      "lat": 59.3848788,
      "lon": 28.1888439
    },
    {
      "type": "node",
      "id": 11515856855,
      "lat": 59.3853274,
      "lon": 28.1906265
    },
    {
      "type": "node",
      "id": 29926223,
      "lat": 59.3916879,
      "lon": 28.1932879
    },
    {
      "type": "node",
      "id": 537853503,
      "lat": 59.3855462,
      "lon": 28.191886
    },
    {
      "type": "node",
      "id": 2311665786,
      "lat": 59.3916281,
      "lon": 28.1933464
    },
    {
      "type": "node",
      "id": 5464804177,
      "lat": 59.3856807,
      "lon": 28.1927375
    },
    {
      "type": "node",
      "id": 6906379481,
      "lat": 59.3857854,
      "lon": 28.1934005
    },
    {
      "type": "node",
      "id": 6912215102,
      "lat": 59.3858058,
      "lon": 28.1935299
    },
    {
      "type": "node",
      "id": 6912215125,
      "lat": 59.3857338,
      "lon": 28.1930737
    },
    {
      "type": "node",
      "id": 6912215175,
      "lat": 59.3856195,
      "lon": 28.1923503
    },
    {
      "type": "node",
      "id": 9877758214,
      "lat": 59.3856574,
      "lon": 28.1925898
    },
    {
      "type": "node",
      "id": 287244838,
      "lat": 59.3820703,
      "lon": 28.1968031
    },
    {
      "type": "node",
      "id": 287244840,
      "lat": 59.3809623,
      "lon": 28.1959175
    },
    {
      "type": "node",
      "id": 302664276,
      "lat": 59.3810161,
      "lon": 28.196146
    },
    {
      "type": "node",
      "id": 392227133,
      "lat": 59.3839275,
      "lon": 28.1999602
    },
    {
      "type": "node",
      "id": 395498940,
      "lat": 59.3825414,
      "lon": 28.1986587
    },
    {
      "type": "node",
      "id": 417987374,
      "lat": 59.3809203,
      "lon": 28.194291
    },
    {
      "type": "node",
      "id": 417987382,
      "lat": 59.3823826,
      "lon": 28.1971334
    },
    {
      "type": "node",
      "id": 417987390,
      "lat": 59.3839433,
      "lon": 28.1999459
    },
    {
      "type": "node",
      "id": 417987391,
      "lat": 59.3845611,
      "lon": 28.1994311
    },
    {
      "type": "node",
      "id": 442665913,
      "lat": 59.3809649,
      "lon": 28.1961049
    },
    {
      "type": "node",
      "id": 542142769,
      "lat": 59.3822861,
      "lon": 28.1969333
    },
    {
      "type": "node",
      "id": 542142771,
      "lat": 59.3824293,
      "lon": 28.1973811
    },
    {
      "type": "node",
      "id": 542142775,
      "lat": 59.3852725,
      "lon": 28.1988195
    },
    {
      "type": "node",
      "id": 2387370378,
      "lat": 59.3809174,
      "lon": 28.1941469
    },
    {
      "type": "node",
      "id": 2949072044,
      "lat": 59.3815116,
      "lon": 28.1964386
    },
    {
      "type": "node",
      "id": 3183376621,
      "lat": 59.380941,
      "lon": 28.1950476
    },
    {
      "type": "node",
      "id": 3183376623,
      "lat": 59.3826291,
      "lon": 28.1996636
    },
    {
      "type": "node",
      "id": 5464804180,
      "lat": 59.3825573,
      "lon": 28.1988177
    },
    {
      "type": "node",
      "id": 6669979135,
      "lat": 59.3825321,
      "lon": 28.1985411
    },
    {
      "type": "node",
      "id": 6882285841,
      "lat": 59.3825896,
      "lon": 28.1991983
    },
    {
      "type": "node",
      "id": 6882285847,
      "lat": 59.3826521,
      "lon": 28.1999337
    },
    {
      "type": "node",
      "id": 9877758193,
      "lat": 59.3825749,
      "lon": 28.1990256
    },
    {
      "type": "node",
      "id": 9956714565,
      "lat": 59.381341,
      "lon": 28.1963379
    },
    {
      "type": "node",
      "id": 9956714600,
      "lat": 59.382654,
      "lon": 28.1999565
    },
    {
      "type": "node",
      "id": 287244835,
      "lat": 59.3832266,
      "lon": 28.2003877
    },
    {
      "type": "node",
      "id": 287244836,
      "lat": 59.3827319,
      "lon": 28.2004179
    },
    {
      "type": "node",
      "id": 442665912,
      "lat": 59.3828178,
      "lon": 28.2004795
    },
    {
      "type": "node",
      "id": 542142773,
      "lat": 59.3836027,
      "lon": 28.2001802
    },
    {
      "type": "node",
      "id": 9956714603,
      "lat": 59.3827005,
      "lon": 28.200354
    },
    {
      "type": "node",
      "id": 9956714604,
      "lat": 59.3826841,
      "lon": 28.2002775
    },
    {
      "type": "node",
      "id": 29926224,
      "lat": 59.3865214,
      "lon": 28.1980775
    },
    {
      "type": "node",
      "id": 417982564,
      "lat": 59.3881529,
      "lon": 28.196425
    },
    {
      "type": "node",
      "id": 417982567,
      "lat": 59.3873727,
      "lon": 28.1972598
    },
    {
      "type": "node",
      "id": 498046902,
      "lat": 59.3907348,
      "lon": 28.1942196
    },
    {
      "type": "node",
      "id": 498046922,
      "lat": 59.3902708,
      "lon": 28.1946623
    },
    {
      "type": "node",
      "id": 537851364,
      "lat": 59.3859032,
      "lon": 28.1941568
    },
    {
      "type": "node",
      "id": 542142778,
      "lat": 59.3890269,
      "lon": 28.1956077
    },
    {
      "type": "node",
      "id": 560886994,
      "lat": 59.386953,
      "lon": 28.1977106
    },
    {
      "type": "node",
      "id": 1825145897,
      "lat": 59.3866978,
      "lon": 28.1979773
    },
    {
      "type": "node",
      "id": 2311665784,
      "lat": 59.3903634,
      "lon": 28.1945884
    },
    {
      "type": "node",
      "id": 2383212519,
      "lat": 59.3910187,
      "lon": 28.1939421
    },
    {
      "type": "node",
      "id": 3183376625,
      "lat": 59.3862113,
      "lon": 28.1982664
    },
    {
      "type": "node",
      "id": 5464804178,
      "lat": 59.3864731,
      "lon": 28.1977819
    },
    {
      "type": "node",
      "id": 6743868070,
      "lat": 59.3859692,
      "lon": 28.1984139
    },
    {
      "type": "node",
      "id": 6906153694,
      "lat": 59.3862912,
      "lon": 28.1966134
    },
    {
      "type": "node",
      "id": 8077313532,
      "lat": 59.386371,
      "lon": 28.1971205
    },
    {
      "type": "node",
      "id": 8077590796,
      "lat": 59.3902453,
      "lon": 28.1946821
    },
    {
      "type": "node",
      "id": 9668246850,
      "lat": 59.3863894,
      "lon": 28.1981579
    },
    {
      "type": "node",
      "id": 9877758188,
      "lat": 59.3864128,
      "lon": 28.1973865
    },
    {
      "type": "node",
      "id": 9879376625,
      "lat": 59.3900245,
      "lon": 28.1948533
    },
    {
      "type": "node",
      "id": 9879376626,
      "lat": 59.3906742,
      "lon": 28.1942792
    },
    {
      "type": "node",
      "id": 9879492970,
      "lat": 59.3872105,
      "lon": 28.1974348
    },
    {
      "type": "node",
      "id": 11383148844,
      "lat": 59.3860559,
      "lon": 28.1951236
    },
    {
      "type": "node",
      "id": 11515890881,
      "lat": 59.3860135,
      "lon": 28.1983869
    },
    {
      "type": "node",
      "id": 11515890883,
      "lat": 59.3886853,
      "lon": 28.1958944
    },
    {
      "type": "node",
      "id": 29926218,
      "lat": 59.4008079,
      "lon": 28.180412
    },
    {
      "type": "node",
      "id": 29926219,
      "lat": 59.3980974,
      "lon": 28.1866118
    },
    {
      "type": "node",
      "id": 29926221,
      "lat": 59.395824,
      "lon": 28.1897305
    },
    {
      "type": "node",
      "id": 29926222,
      "lat": 59.3925577,
      "lon": 28.192549
    },
    {
      "type": "node",
      "id": 429582411,
      "lat": 59.3966351,
      "lon": 28.1888898
    },
    {
      "type": "node",
      "id": 542142782,
      "lat": 59.3948321,
      "lon": 28.1906839
    },
    {
      "type": "node",
      "id": 1309531718,
      "lat": 59.3943904,
      "lon": 28.1910701
    },
    {
      "type": "node",
      "id": 2313948089,
      "lat": 59.3977006,
      "lon": 28.1873052
    },
    {
      "type": "node",
      "id": 2387382043,
      "lat": 59.3936893,
      "lon": 28.1916372
    },
    {
      "type": "node",
      "id": 3183376628,
      "lat": 59.3949745,
      "lon": 28.1905478
    },
    {
      "type": "node",
      "id": 7345756225,
      "lat": 59.3954038,
      "lon": 28.1901358
    },
    {
      "type": "node",
      "id": 9273249994,
      "lat": 59.3950978,
      "lon": 28.1904295
    },
    {
      "type": "node",
      "id": 9877758212,
      "lat": 59.3950467,
      "lon": 28.1904785
    },
    {
      "type": "node",
      "id": 9877758213,
      "lat": 59.3952524,
      "lon": 28.1902811
    },
    {
      "type": "node",
      "id": 12522708483,
      "lat": 59.3972397,
      "lon": 28.1880386
    },
    {
      "type": "node",
      "id": 12522708485,
      "lat": 59.3968919,
      "lon": 28.1885482
    },
    {
      "type": "node",
      "id": 542200125,
      "lat": 59.3986385,
      "lon": 28.1856308
    },
    {
      "type": "node",
      "id": 5439504516,
      "lat": 59.3994066,
      "lon": 28.1837017
    },
    {
      "type": "node",
      "id": 7640709191,
      "lat": 59.3999684,
      "lon": 28.1823722
    },
    {
      "type": "node",
      "id": 7931981449,
      "lat": 59.4000861,
      "lon": 28.1820975
    },
    {
      "type": "node",
      "id": 9273250007,
      "lat": 59.3992458,
      "lon": 28.1841155
    },
    {
      "type": "node",
      "id": 9877758210,
      "lat": 59.3992439,
      "lon": 28.1841202
    },
    {
      "type": "node",
      "id": 9877758211,
      "lat": 59.3996065,
      "lon": 28.1832285
    }
  ]
}